zipcode,business_status,name,lat,lng,country_code
91910,OPERATIONAL,Smart & Final Extra!,32.6389997,-117.050924,us
91910,OPERATIONAL,Sprouts Farmers Market,32.627807,-117.0749936,us
91911,OPERATIONAL,Carnival Supermarket,32.62185929999999,-117.0728924,us
91910,OPERATIONAL,Target Grocery,32.65361609999999,-117.0655931,us
91910,OPERATIONAL,99 Ranch Market,32.629342,-117.0409309,us
91911,OPERATIONAL,Northgate Market,32.6142014,-117.0709638,us
91911,OPERATIONAL,ALDI,32.5934452,-117.0350922,us
91911,OPERATIONAL,Smart & Final,32.5938439,-117.0659156,us
91911,OPERATIONAL,Apple Tree Market,32.5983872,-117.0649282,us
91911,OPERATIONAL,Mercado International 2000,32.6026449,-117.0642838,us
91915,OPERATIONAL,Barons Market Otay Ranch,32.6230952,-116.9659426,us
91913,OPERATIONAL,Sprouts Farmers Market,32.650776,-116.970119,us
91913,OPERATIONAL,Trader Joe's,32.652291,-116.9705502,us
91913,OPERATIONAL,Target Grocery,32.6506934,-116.9683212,us
91915,OPERATIONAL,Barons Market Otay Ranch,32.6230952,-116.9659426,us
91913,OPERATIONAL,Sprouts Farmers Market,32.650776,-116.970119,us
91913,OPERATIONAL,Trader Joe's,32.652291,-116.9705502,us
91915,OPERATIONAL,Barons Market Otay Ranch,32.6230952,-116.9659426,us
91913,OPERATIONAL,Target Grocery,32.6506934,-116.9683212,us
91932,OPERATIONAL,La Posta Market,32.5767766,-117.1064618,us
91932,OPERATIONAL,Imperial Beach Commissary- Defense Commissary Agency,32.5682893,-117.1082976,us
92154,OPERATIONAL,Northgate Market,32.57576479999999,-117.0704548,us
92154,OPERATIONAL,Farm Fresh Market,32.583347,-117.09361,us
92154,OPERATIONAL,Coronado Swap Meet,32.5781626,-117.0864147,us
91911,OPERATIONAL,Palet chula Vista,32.5982686,-117.0875518,us
91942,OPERATIONAL,Trader Joe's,32.7792966,-117.0056147,us
91942,OPERATIONAL,Sprouts Farmers Market,32.7628174,-117.0187199,us
91942,OPERATIONAL,Walmart Neighborhood Market,32.7748551,-117.0075528,us
91942,OPERATIONAL,Trader Joe's,32.7792966,-117.0056147,us
91942,OPERATIONAL,Sprouts Farmers Market,32.7628174,-117.0187199,us
91942,OPERATIONAL,Vine Ripe Market,32.776085,-117.0197158,us
91942,OPERATIONAL,Walmart Neighborhood Market,32.7748551,-117.0075528,us
91942,OPERATIONAL,Target Grocery,32.7792719,-117.0126681,us
91945,OPERATIONAL,Sprouts Farmers Market,32.7406408,-117.030077,us
92114,OPERATIONAL,Foodland Supermarket,32.7156391,-117.026008,us
92112,OPERATIONAL,Target Grocery,32.7412624,-117.0554922,us
91950,OPERATIONAL,Seafood City Supermarket,32.6748947,-117.0910302,us
91950,OPERATIONAL,Red Bird Market,32.667204,-117.0941181,us
91950,OPERATIONAL,Vallarta Supermarkets,32.6813499,-117.0798762,us
91950,OPERATIONAL,Island Pacific Seafood Market,32.680032,-117.078863,us
91950,OPERATIONAL,Smart & Final Extra!,32.651978,-117.0898987,us
91950,OPERATIONAL,Manila Seafood Oriental Market,32.6774439,-117.0818611,us
91950,OPERATIONAL,100 Percent Naturall,32.6903179,-117.0866088,us
91950,OPERATIONAL,Carnival Supermarket,32.6805179,-117.0889715,us
91950,OPERATIONAL,IGA National City CA,32.6827337,-117.0997256,us
91950,OPERATIONAL,Smart & Final Extra!,32.6760357,-117.0936142,us
91950,OPERATIONAL,Chan Dong Supermarket,32.6774515,-117.1004953,us
91950,OPERATIONAL,Big Ben Market,32.67604379999999,-117.1054891,us
91950,OPERATIONAL,National City Market,32.6677702,-117.1008081,us
91950,OPERATIONAL,Fiesta Market,32.67433059999999,-117.0772131,us
91950,OPERATIONAL,Manolo Farmers Market,32.6828118,-117.0997214,us
91950,OPERATIONAL,ALDI,32.6508675,-117.0893941,us
91977,OPERATIONAL,Smart & Final Extra!,32.7126719,-117.0109029,us
91977,OPERATIONAL,Target Grocery,32.7132653,-117.010811,us
91941,OPERATIONAL,Smart & Final Extra!,32.746536,-116.9586728,us
92019,OPERATIONAL,Target Grocery,32.7382167,-116.9383274,us
91941,OPERATIONAL,FDAkaydi,32.74761050000001,-116.9605212,us
92003,OPERATIONAL,Daniel's Market,33.2955627,-117.2217407,us
92024,OPERATIONAL,Trader Joe's,33.0471008,-117.2558081,us
92075,OPERATIONAL,Whole Foods Market,32.98115069999999,-117.2519665,us
92075,OPERATIONAL,Sprouts Farmers Market,32.99563,-117.25978,us
92024,OPERATIONAL,Sprouts Farmers Market,33.0447246,-117.2607456,us
92024,OPERATIONAL,Smart & Final Extra!,33.0464579,-117.2822551,us
92024,OPERATIONAL,Lazy Acres,33.0499423,-117.2889289,us
92024,OPERATIONAL,Back to Basics Food LLC,33.0366259,-117.2399982,us
92024,OPERATIONAL,Harvest Ranch Markets - Encinitas,33.035672,-117.238384,us
92024,OPERATIONAL,ALDI,33.0556369,-117.2607058,us
92054,OPERATIONAL,Trader Joe's,33.1841133,-117.3319447,us
92008,OPERATIONAL,Sprouts Farmers Market,33.1764271,-117.3248003,us
92008,OPERATIONAL,Smart & Final Extra!,33.1617961,-117.3434662,us
92011,OPERATIONAL,Happy Pantry Carlsbad,33.1386776,-117.2726976,us
92008,OPERATIONAL,El Torito Market,33.15831610000001,-117.3464065,us
92054,OPERATIONAL,Target Grocery,33.1842313,-117.330246,us
92054,OPERATIONAL,WinCo Foods,33.1855672,-117.3299489,us
92009,OPERATIONAL,Trader Joe's,33.1266667,-117.2546042,us
92024,OPERATIONAL,Jimbo's,33.072126,-117.2650557,us
92009,OPERATIONAL,Sprouts Farmers Market,33.0749802,-117.2385432,us
92024,OPERATIONAL,Target Grocery,33.06775,-117.26256,us
92009,OPERATIONAL,Sprouts Farmers Market,33.1293707,-117.2542459,us
92024,OPERATIONAL,ALDI,33.0556369,-117.2607058,us
92078,OPERATIONAL,Target Grocery,33.13602889999999,-117.2288456,us
92009,OPERATIONAL,Trader Joe's,33.1266667,-117.2546042,us
92008,OPERATIONAL,Sprouts Farmers Market,33.1764271,-117.3248003,us
92011,OPERATIONAL,Happy Pantry Carlsbad,33.1386776,-117.2726976,us
92083,OPERATIONAL,Smart & Final Extra!,33.1891152,-117.2810547,us
92056,OPERATIONAL,North Park Produce,33.1850724,-117.282814,us
92009,OPERATIONAL,Sprouts Farmers Market,33.1293707,-117.2542459,us
92081,OPERATIONAL,dynamic fresh market,33.16474419999999,-117.2338296,us
92009,OPERATIONAL,Trader Joe's,33.1266667,-117.2546042,us
92024,OPERATIONAL,Jimbo's,33.072126,-117.2650557,us
92011,OPERATIONAL,Happy Pantry Carlsbad,33.1386776,-117.2726976,us
92009,OPERATIONAL,Sprouts Farmers Market,33.1293707,-117.2542459,us
92075,OPERATIONAL,Whole Foods Market,32.98115069999999,-117.2519665,us
92014,OPERATIONAL,Jimbo’s,32.9499304,-117.2337335,us
92075,OPERATIONAL,Sprouts Farmers Market,32.99563,-117.25978,us
92075,OPERATIONAL,"Kudler Fine Foods, Del Mar",32.981384,-117.2486659,us
91942,OPERATIONAL,Trader Joe's,32.7792966,-117.0056147,us
92021,OPERATIONAL,Sprouts Farmers Market,32.7960011,-116.936541,us
92020,OPERATIONAL,Smart & Final Extra!,32.808175,-116.975002,us
92020,OPERATIONAL,Harvest International Market,32.794792,-116.9527519,us
92021,OPERATIONAL,Walmart Neighborhood Market,32.797319,-116.9365631,us
92020,OPERATIONAL,Smart & Final Extra!,32.8009261,-117.0037293,us
91942,OPERATIONAL,Walmart Neighborhood Market,32.7748551,-117.0075528,us
92020,OPERATIONAL,Washington Market Western Unn,32.7874107,-116.9630611,us
92019,OPERATIONAL,Kaelin's Market,32.8009598,-116.9294269,us
92071,OPERATIONAL,Grocery Outlet,32.837353,-116.98453,us
92019,OPERATIONAL,Valley Foods,32.794772,-116.938167,us
92020,OPERATIONAL,Big Bear Produce,32.7951641,-116.9562546,us
92020,OPERATIONAL,Manolo Farmers Market,32.7940788,-116.9450378,us
92021,OPERATIONAL,Target Grocery,32.8098379,-116.9593024,us
92021,OPERATIONAL,Oro & Broadway Market,32.8079766,-116.9399144,us
92119,OPERATIONAL,ALDI,32.8043413,-117.0076338,us
92019,OPERATIONAL,Lulu's International Market,32.78831940000001,-116.929516,us
91942,OPERATIONAL,Target Grocery,32.7792719,-117.0126681,us
92021,OPERATIONAL,Smart & Final Extra!,32.82434740000001,-116.9040087,us
92024,OPERATIONAL,Trader Joe's,33.0471008,-117.2558081,us
92024,OPERATIONAL,Jimbo's,33.072126,-117.2650557,us
92009,OPERATIONAL,Sprouts Farmers Market,33.0749802,-117.2385432,us
92024,OPERATIONAL,Sprouts Farmers Market,33.0447246,-117.2607456,us
92024,OPERATIONAL,Smart & Final Extra!,33.0464579,-117.2822551,us
92024,OPERATIONAL,Back to Basics Food LLC,33.0366259,-117.2399982,us
92024,OPERATIONAL,Lazy Acres,33.0499423,-117.2889289,us
92024,OPERATIONAL,Harvest Ranch Markets - Encinitas,33.035672,-117.238384,us
92024,OPERATIONAL,ALDI,33.0556369,-117.2607058,us
92024,OPERATIONAL,Target Grocery,33.06775,-117.26256,us
92025,OPERATIONAL,Trader Joe's,33.1000328,-117.0746841,us
92025,OPERATIONAL,Jimbo's,33.1042779,-117.077503,us
92025,OPERATIONAL,Major Market Inc,33.1010995,-117.0754394,us
92025,OPERATIONAL,Target Grocery,33.070081,-117.0653202,us
92028,OPERATIONAL,Major Market,33.3757043,-117.2527188,us
92028,OPERATIONAL,Northgate Market,33.3683299,-117.2497529,us
92029,OPERATIONAL,ALDI,33.1127039,-117.1039765,us
92029,OPERATIONAL,Target Grocery,33.1136227,-117.0994088,us
92037,OPERATIONAL,Trader Joe's,32.8655088,-117.232262,us
92037,OPERATIONAL,French Foods,32.8323995,-117.2442897,us
92054,OPERATIONAL,Trader Joe's,33.1841133,-117.3319447,us
92008,OPERATIONAL,Sprouts Farmers Market,33.1764271,-117.3248003,us
92054,OPERATIONAL,Smart & Final Extra!,33.1896593,-117.3600233,us
92054,OPERATIONAL,Walmart Neighborhood Market,33.20002,-117.3749596,us
92008,OPERATIONAL,Smart & Final Extra!,33.1617961,-117.3434662,us
92054,OPERATIONAL,Red & White Superette Inc,33.2004375,-117.3831307,us
92054,OPERATIONAL,Pappy's Market,33.1985428,-117.3844471,us
92008,OPERATIONAL,El Torito Market,33.15831610000001,-117.3464065,us
92054,OPERATIONAL,Fire Mountain Market,33.19503900000001,-117.3535043,us
92058,OPERATIONAL,Viva Market,33.2048757,-117.3621375,us
92058,OPERATIONAL,Mesa Market,33.2081915,-117.3594033,us
92054,OPERATIONAL,Living Market Palm Tree Art,33.187781,-117.374888,us
92054,OPERATIONAL,Wisconsin Market & Spirits,33.18705,-117.3759231,us
92054,OPERATIONAL,WinCo Foods,33.1855672,-117.3299489,us
92054,OPERATIONAL,Target Grocery,33.1842313,-117.330246,us
90257,OPERATIONAL,Rodeos Meat Market,33.2272984,-117.3299475,us
92054,OPERATIONAL,Trader Joe's,33.1841133,-117.3319447,us
92083,OPERATIONAL,Frazier Farms Market Vista,33.1975812,-117.2458867,us
92008,OPERATIONAL,Sprouts Farmers Market,33.1764271,-117.3248003,us
92083,OPERATIONAL,Smart & Final Extra!,33.1891152,-117.2810547,us
92084,OPERATIONAL,Family Dollar,33.2169018,-117.2442843,us
92057,OPERATIONAL,Sprouts Farmers Market,33.2444067,-117.2913095,us
92056,OPERATIONAL,88 Ranch Marketplace,33.205458,-117.2875428,us
92056,OPERATIONAL,ALDI,33.2078726,-117.2820227,us
92056,OPERATIONAL,North Park Produce,33.1850724,-117.282814,us
92054,OPERATIONAL,WinCo Foods,33.1855672,-117.3299489,us
92054,OPERATIONAL,Target Grocery,33.1842313,-117.330246,us
90257,OPERATIONAL,Rodeos Meat Market,33.2272984,-117.3299475,us
92057,OPERATIONAL,Sprouts Farmers Market,33.2444067,-117.2913095,us
90257,OPERATIONAL,Five Star Market Inc,33.244874,-117.3215852,us
92057,OPERATIONAL,Target Grocery,33.2469196,-117.2931453,us
90257,OPERATIONAL,Rodeos Meat Market,33.2272984,-117.3299475,us
90257,OPERATIONAL,Five Star Market Inc,33.244874,-117.3215852,us
92064,OPERATIONAL,Sprouts Farmers Market,32.9573018,-117.0376049,us
92128,OPERATIONAL,Sprouts Farmers Market,33.003469,-117.058409,us
92064,OPERATIONAL,ALDI,32.95774869999999,-117.0393732,us
92064,OPERATIONAL,Target Grocery,32.9805582,-117.0602928,us
92065,OPERATIONAL,ALDI,33.0381573,-116.8793361,us
92024,OPERATIONAL,Back to Basics Food LLC,33.0366259,-117.2399982,us
92024,OPERATIONAL,Harvest Ranch Markets - Encinitas,33.035672,-117.238384,us
92078,OPERATIONAL,Sprouts Farmers Market,33.1406396,-117.1907508,us
92096,OPERATIONAL,Smart & Final Extra!,33.1372926,-117.1809751,us
92078,OPERATIONAL,WinCo Foods,33.135303,-117.1765766,us
92071,OPERATIONAL,Grocery Outlet,32.837353,-116.98453,us
92071,OPERATIONAL,Smart & Final Extra!,32.8564095,-116.9721521,us
92071,OPERATIONAL,Sprouts Farmers Market,32.837516,-116.993599,us
92071,OPERATIONAL,Lakes Market & Deli,32.8451168,-116.9986176,us
92071,OPERATIONAL,Target Grocery,32.8423516,-116.9824828,us
92075,OPERATIONAL,Whole Foods Market,32.98115069999999,-117.2519665,us
92075,OPERATIONAL,Sprouts Farmers Market,32.99563,-117.25978,us
92024,OPERATIONAL,Back to Basics Food LLC,33.0366259,-117.2399982,us
92024,OPERATIONAL,Harvest Ranch Markets - Encinitas,33.035672,-117.238384,us
92075,OPERATIONAL,"Kudler Fine Foods, Del Mar",32.981384,-117.2486659,us
92078,OPERATIONAL,Sprouts Farmers Market,33.1406396,-117.1907508,us
92078,OPERATIONAL,San Marcos Market #2,33.1366943,-117.2053728,us
92078,OPERATIONAL,Happi Spatula (former Asian 101 Market),33.135702,-117.1833232,us
92078,OPERATIONAL,WinCo Foods,33.135303,-117.1765766,us
92096,OPERATIONAL,Smart & Final Extra!,33.1372926,-117.1809751,us
92078,OPERATIONAL,Target Grocery,33.13602889999999,-117.2288456,us
92009,OPERATIONAL,Trader Joe's,33.1266667,-117.2546042,us
92083,OPERATIONAL,Frazier Farms Market Vista,33.1975812,-117.2458867,us
92081,OPERATIONAL,ALDI,33.1725742,-117.2151626,us
92078,OPERATIONAL,San Marcos Market #2,33.1366943,-117.2053728,us
92011,OPERATIONAL,Happy Pantry Carlsbad,33.1386776,-117.2726976,us
92083,OPERATIONAL,Smart & Final Extra!,33.1891152,-117.2810547,us
92081,OPERATIONAL,dynamic fresh market,33.16474419999999,-117.2338296,us
92081,OPERATIONAL,Target Grocery,33.1685787,-117.2148807,us
92078,OPERATIONAL,Target Grocery,33.13602889999999,-117.2288456,us
92009,OPERATIONAL,Sprouts Farmers Market,33.1293707,-117.2542459,us
92056,OPERATIONAL,North Park Produce,33.1850724,-117.282814,us
92083,OPERATIONAL,Frazier Farms Market Vista,33.1975812,-117.2458867,us
92084,OPERATIONAL,Family Dollar,33.2169018,-117.2442843,us
92083,OPERATIONAL,Smart & Final Extra!,33.1891152,-117.2810547,us
92081,OPERATIONAL,ALDI,33.1725742,-117.2151626,us
92084,OPERATIONAL,Northgate Market,33.2163992,-117.2286218,us
92084,OPERATIONAL,Family Dollar,33.2105562,-117.2304372,us
92084,OPERATIONAL,Sprouts Farmers Market,33.219926,-117.226617,us
92056,OPERATIONAL,ALDI,33.2078726,-117.2820227,us
92056,OPERATIONAL,North Park Produce,33.1850724,-117.282814,us
92056,OPERATIONAL,88 Ranch Marketplace,33.205458,-117.2875428,us
92081,OPERATIONAL,dynamic fresh market,33.16474419999999,-117.2338296,us
92081,OPERATIONAL,Target Grocery,33.1685787,-117.2148807,us
92083,OPERATIONAL,Frazier Farms Market Vista,33.1975812,-117.2458867,us
92084,OPERATIONAL,Family Dollar,33.2169018,-117.2442843,us
92084,OPERATIONAL,Northgate Market,33.2163992,-117.2286218,us
92084,OPERATIONAL,Family Dollar,33.2105562,-117.2304372,us
92084,OPERATIONAL,Sprouts Farmers Market,33.219926,-117.226617,us
92103,OPERATIONAL,Whole Foods Market,32.747879,-117.1580005,us
92163,OPERATIONAL,Trader Joe's,32.7498752,-117.1538189,us
92147,OPERATIONAL,Trader Joe's,32.7359623,-117.2172925,us
92110,OPERATIONAL,Sprouts Farmers Market,32.7475482,-117.2066558,us
92163,OPERATIONAL,Ralphs,32.7496264,-117.1546198,us
92101,OPERATIONAL,Smart & Final,32.7129344,-117.1510158,us
92135,OPERATIONAL,North Island Commissary,32.7025,-117.185,us
92118,OPERATIONAL,Smart & Final Extra!,32.6972763,-117.1712342,us
92101,OPERATIONAL,Krisp Beverages + Natural Foods,32.7161686,-117.1586384,us
92110,OPERATIONAL,Smart & Final,32.74894729999999,-117.2036412,us
92113,OPERATIONAL,Walmart Neighborhood Market,32.70591830000001,-117.144426,us
92113,OPERATIONAL,Family Dollar,32.706633,-117.1374132,us
92135,OPERATIONAL,Boney's Bayside Market,32.69773300000001,-117.172639,us
92113,OPERATIONAL,Northgate Market,32.69879720000001,-117.1452967,us
92101,OPERATIONAL,Gaslamp Marketplace,32.7116917,-117.1630378,us
92101,OPERATIONAL,First & Ivy Market,32.728055,-117.164127,us
92103,OPERATIONAL,MCX Marine Mart,32.7433992,-117.1953852,us
92102,OPERATIONAL,La Posta Market,32.70873,-117.1339741,us
92102,OPERATIONAL,Golden Hill Market,32.7117558,-117.1451485,us
92103,OPERATIONAL,Lazy Acres,32.7503968,-117.1678252,us
92102,OPERATIONAL,Brunos Market,32.7065942,-117.1297107,us
92113,OPERATIONAL,Family Dollar,32.706633,-117.1374132,us
92102,OPERATIONAL,La Posta Market,32.70873,-117.1339741,us
92113,OPERATIONAL,Foodland Mercado IGA,32.6968472,-117.1176623,us
92102,OPERATIONAL,Food Bowl Market & Deli,32.722045,-117.1289752,us
92105,OPERATIONAL,My Market / Liquor,32.723014,-117.106825,us
92102,OPERATIONAL,Target Grocery,32.726805,-117.1289967,us
92113,OPERATIONAL,Golden Gate Market,32.695925,-117.1123221,us
92103,OPERATIONAL,Whole Foods Market,32.747879,-117.1580005,us
92163,OPERATIONAL,Trader Joe's,32.7498752,-117.1538189,us
92103,OPERATIONAL,Sprouts Farmers Market,32.75333589999999,-117.145899,us
92163,OPERATIONAL,Ralphs,32.7496264,-117.1546198,us
92108,OPERATIONAL,Trader Joe's,32.76616190000001,-117.1551652,us
92163,OPERATIONAL,Smart & Final Extra!,32.7480779,-117.1403543,us
92103,OPERATIONAL,Lazy Acres,32.7503968,-117.1678252,us
92103,OPERATIONAL,American Market,32.75709419999999,-117.1498751,us
92116,OPERATIONAL,Park Boulevard Deli,32.7592921,-117.1464767,us
92101,OPERATIONAL,First & Ivy Market,32.728055,-117.164127,us
92103,OPERATIONAL,Sprouts Farmers Market,32.75333589999999,-117.145899,us
92116,OPERATIONAL,North Park Produce,32.7549423,-117.1165352,us
92163,OPERATIONAL,Smart & Final Extra!,32.7480779,-117.1403543,us
92104,OPERATIONAL,Pancho Villa Farmer Market,32.75455299999999,-117.12337,us
92105,OPERATIONAL,Family Dollar,32.74959709999999,-117.1121915,us
92104,OPERATIONAL,Parkside Market,32.73916669999999,-117.1247222,us
92105,OPERATIONAL,Murphy's Market,32.74268720000001,-117.1012954,us
92104,OPERATIONAL,Target Grocery,32.74825619999999,-117.1289111,us
92104,OPERATIONAL,Barons Market North Park,32.7483264,-117.1244071,us
92102,OPERATIONAL,Target Grocery,32.726805,-117.1289967,us
92102,OPERATIONAL,Food Bowl Market & Deli,32.722045,-117.1289752,us
92116,OPERATIONAL,Heights Market,32.7632144,-117.1215403,us
92105,OPERATIONAL,Fairmount Supermarket,32.738601,-117.101315,us
92105,OPERATIONAL,Vien Dong,32.7491667,-117.08,us
92105,OPERATIONAL,Northgate Market,32.7469772,-117.0782011,us
92105,OPERATIONAL,Supermercado Murphy,32.7497222,-117.0958333,us
92105,OPERATIONAL,Murphy's Market,32.74268720000001,-117.1012954,us
92105,OPERATIONAL,Minh Huong Supermarket,32.7501007,-117.0920498,us
92105,OPERATIONAL,United Liquor & Market,32.7255985,-117.0838561,us
92105,OPERATIONAL,Family Dollar,32.74959709999999,-117.1121915,us
92115,OPERATIONAL,World Foods Supermarket,32.75633200000001,-117.0831261,us
92105,OPERATIONAL,Fairmount Supermarket,32.738601,-117.101315,us
92105,OPERATIONAL,Vip Discount Store,32.7492195,-117.0871768,us
92115,OPERATIONAL,Hing Long Oriental Food Market,32.7562299,-117.0946824,us
92115,OPERATIONAL,Sin Lee Food Corporation,32.7554254,-117.0940505,us
92105,OPERATIONAL,My Market / Liquor,32.723014,-117.106825,us
92115,OPERATIONAL,Vien Dong Supermarket,32.7563626,-117.0831957,us
92147,OPERATIONAL,Trader Joe's,32.7359623,-117.2172925,us
92017,OPERATIONAL,Ocean Beach People's Organic Food Market,32.7494931,-117.2428644,us
92110,OPERATIONAL,Sprouts Farmers Market,32.7475482,-117.2066558,us
92110,OPERATIONAL,Barons Market Point Loma,32.753444,-117.222286,us
92106,OPERATIONAL,Jensen's Foods,32.72176940000001,-117.2454361,us
92135,OPERATIONAL,North Island Commissary,32.7025,-117.185,us
92106,OPERATIONAL,Stump's Family Marketplace,32.7411583,-117.2291667,us
92110,OPERATIONAL,Smart & Final,32.74894729999999,-117.2036412,us
92107,OPERATIONAL,Target Grocery,32.7456164,-117.2484592,us
92110,OPERATIONAL,Target Grocery,32.75112869999999,-117.210103,us
92147,OPERATIONAL,Trader Joe's,32.7359623,-117.2172925,us
92017,OPERATIONAL,Ocean Beach People's Organic Food Market,32.7494931,-117.2428644,us
92110,OPERATIONAL,Sprouts Farmers Market,32.7475482,-117.2066558,us
92110,OPERATIONAL,Barons Market Point Loma,32.753444,-117.222286,us
92106,OPERATIONAL,Jensen's Foods,32.72176940000001,-117.2454361,us
92110,OPERATIONAL,Brazil By The Bay Market,32.7577172,-117.2123876,us
92110,OPERATIONAL,Smart & Final,32.74894729999999,-117.2036412,us
92109,OPERATIONAL,Mission Market,32.76541,-117.251013,us
92106,OPERATIONAL,Stump's Family Marketplace,32.7411583,-117.2291667,us
92109,OPERATIONAL,Harry's Liquor & Market,32.772168,-117.2516845,us
92109,OPERATIONAL,Coast Market,32.7723043,-117.2514126,us
92107,OPERATIONAL,Target Grocery,32.7456164,-117.2484592,us
92110,OPERATIONAL,Target Grocery,32.75112869999999,-117.210103,us
92103,OPERATIONAL,MCX Marine Mart,32.7433992,-117.1953852,us
92103,OPERATIONAL,Sprouts Farmers Market,32.75333589999999,-117.145899,us
92108,OPERATIONAL,Trader Joe's,32.76616190000001,-117.1551652,us
92116,OPERATIONAL,Park Boulevard Deli,32.7592921,-117.1464767,us
92018,OPERATIONAL,Target Grocery,32.76798049999999,-117.1505562,us
92103,OPERATIONAL,American Market,32.75709419999999,-117.1498751,us
92116,OPERATIONAL,Heights Market,32.7632144,-117.1215403,us
92108,OPERATIONAL,Food bank Union,32.7769802,-117.1153156,us
92109,OPERATIONAL,Trader Joe's,32.8010115,-117.2407426,us
92109,OPERATIONAL,Sprouts Farmers Market,32.79864,-117.2468,us
92109,OPERATIONAL,Harry's Liquor & Market,32.772168,-117.2516845,us
92109,OPERATIONAL,Coast Market,32.7723043,-117.2514126,us
92103,OPERATIONAL,Whole Foods Market,32.747879,-117.1580005,us
92163,OPERATIONAL,Trader Joe's,32.7498752,-117.1538189,us
92147,OPERATIONAL,Trader Joe's,32.7359623,-117.2172925,us
92110,OPERATIONAL,Sprouts Farmers Market,32.7475482,-117.2066558,us
92017,OPERATIONAL,Ocean Beach People's Organic Food Market,32.7494931,-117.2428644,us
92111,OPERATIONAL,Sieu Thi Thuan Phat Supermarket,32.78446700000001,-117.169781,us
92163,OPERATIONAL,Ralphs,32.7496264,-117.1546198,us
92110,OPERATIONAL,Barons Market Point Loma,32.753444,-117.222286,us
92117,OPERATIONAL,V 0utlet,32.7949339,-117.1943954,us
92110,OPERATIONAL,Brazil By The Bay Market,32.7577172,-117.2123876,us
92110,OPERATIONAL,Smart & Final,32.74894729999999,-117.2036412,us
92111,OPERATIONAL,Sprouts Farmers Market,32.7943877,-117.1923827,us
92108,OPERATIONAL,Trader Joe's,32.76616190000001,-117.1551652,us
92106,OPERATIONAL,Stump's Family Marketplace,32.7411583,-117.2291667,us
92109,OPERATIONAL,Mission Market,32.76541,-117.251013,us
92110,OPERATIONAL,Target Grocery,32.75112869999999,-117.210103,us
92103,OPERATIONAL,MCX Marine Mart,32.7433992,-117.1953852,us
92103,OPERATIONAL,Lazy Acres,32.7503968,-117.1678252,us
92018,OPERATIONAL,Target Grocery,32.76798049999999,-117.1505562,us
92103,OPERATIONAL,American Market,32.75709419999999,-117.1498751,us
92111,OPERATIONAL,99 Ranch Market,32.8336331,-117.1608732,us
92133,OPERATIONAL,Zion Market,32.83169169999999,-117.1554333,us
92117,OPERATIONAL,Sprouts Farmers Market,32.8244543,-117.18374,us
92111,OPERATIONAL,Sieu Thi Thuan Phat Supermarket,32.78446700000001,-117.169781,us
92133,OPERATIONAL,Mitsuwa Marketplace - San Diego,32.8190018,-117.1502442,us
92133,OPERATIONAL,Carnival Market,32.8087361,-117.1606227,us
92117,OPERATIONAL,Smart & Final,32.8333901,-117.1795324,us
92117,OPERATIONAL,V 0utlet,32.7949339,-117.1943954,us
92133,OPERATIONAL,Nijiya Market San Diego Store,32.814243,-117.154087,us
92117,OPERATIONAL,99 Ranch Market,32.821638,-117.1769594,us
92111,OPERATIONAL,H Mart Balboa,32.82071730000001,-117.1574763,us
92111,OPERATIONAL,Sprouts Farmers Market,32.7943877,-117.1923827,us
92133,OPERATIONAL,Marukai,32.82148159999999,-117.147938,us
92108,OPERATIONAL,Trader Joe's,32.76616190000001,-117.1551652,us
92117,OPERATIONAL,La Tiendita Mexican Market,32.8274604,-117.2052585,us
92111,OPERATIONAL,Kearny Mesa Market,32.8019707,-117.1569371,us
92123,OPERATIONAL,palm drive,32.7967389,-117.1563463,us
92111,OPERATIONAL,Target Grocery,32.8221521,-117.1784939,us
92133,OPERATIONAL,Target Grocery,32.8166789,-117.1516591,us
92111,OPERATIONAL,Bishops' Storehouse,32.8267594,-117.1493614,us
92113,OPERATIONAL,Northgate Market,32.6916003,-117.104093,us
92113,OPERATIONAL,Bel Air Market,32.69653540000001,-117.09842,us
92102,OPERATIONAL,Brunos Market,32.7065942,-117.1297107,us
92136,OPERATIONAL,Commissary Naval Base San Diego,32.6908681,-117.13006,us
92113,OPERATIONAL,Family Dollar,32.706633,-117.1374132,us
92113,OPERATIONAL,Foodland Mercado IGA,32.6968472,-117.1176623,us
92102,OPERATIONAL,La Posta Market,32.70873,-117.1339741,us
92113,OPERATIONAL,Walmart Neighborhood Market,32.70591830000001,-117.144426,us
92113,OPERATIONAL,Northgate Market,32.69879720000001,-117.1452967,us
92113,OPERATIONAL,Golden Gate Market,32.695925,-117.1123221,us
92136,OPERATIONAL,Lucky 's Market,32.69726490000001,-117.1384224,us
92113,OPERATIONAL,MAXA Market,32.6997418,-117.1415897,us
91950,OPERATIONAL,IGA National City CA,32.6827337,-117.0997256,us
91950,OPERATIONAL,Manolo Farmers Market,32.6828118,-117.0997214,us
92114,OPERATIONAL,Imperial Food Supermarket,32.710228,-117.057746,us
92114,OPERATIONAL,Food Bargain Market,32.7095145,-117.0630531,us
92105,OPERATIONAL,Vien Dong,32.7491667,-117.08,us
92105,OPERATIONAL,Northgate Market,32.7469772,-117.0782011,us
92115,OPERATIONAL,Smart & Final Extra!,32.7623816,-117.0635023,us
92182,OPERATIONAL,Trader Joe's,32.7717718,-117.0704775,us
92115,OPERATIONAL,World Foods Supermarket,32.75633200000001,-117.0831261,us
92105,OPERATIONAL,Minh Huong Supermarket,32.7501007,-117.0920498,us
92115,OPERATIONAL,Vien Dong Supermarket,32.7563626,-117.0831957,us
92105,OPERATIONAL,Vip Discount Store,32.7492195,-117.0871768,us
92115,OPERATIONAL,Hing Long Oriental Food Market,32.7562299,-117.0946824,us
92115,OPERATIONAL,Sin Lee Food Corporation,32.7554254,-117.0940505,us
92103,OPERATIONAL,Sprouts Farmers Market,32.75333589999999,-117.145899,us
92116,OPERATIONAL,North Park Produce,32.7549423,-117.1165352,us
92104,OPERATIONAL,Pancho Villa Farmer Market,32.75455299999999,-117.12337,us
92105,OPERATIONAL,Family Dollar,32.74959709999999,-117.1121915,us
92163,OPERATIONAL,Smart & Final Extra!,32.7480779,-117.1403543,us
92116,OPERATIONAL,Heights Market,32.7632144,-117.1215403,us
92108,OPERATIONAL,Food bank Union,32.7769802,-117.1153156,us
92104,OPERATIONAL,Barons Market North Park,32.7483264,-117.1244071,us
92104,OPERATIONAL,Target Grocery,32.74825619999999,-117.1289111,us
92116,OPERATIONAL,Park Boulevard Deli,32.7592921,-117.1464767,us
92117,OPERATIONAL,Sprouts Farmers Market,32.8244543,-117.18374,us
92117,OPERATIONAL,Smart & Final,32.8333901,-117.1795324,us
92117,OPERATIONAL,99 Ranch Market,32.821638,-117.1769594,us
92117,OPERATIONAL,La Tiendita Mexican Market,32.8274604,-117.2052585,us
92111,OPERATIONAL,Target Grocery,32.8221521,-117.1784939,us
92118,OPERATIONAL,Smart & Final Extra!,32.6972763,-117.1712342,us
92119,OPERATIONAL,Keil's Fresh Food Store,32.8036041,-117.0445404,us
92119,OPERATIONAL,ALDI,32.8043413,-117.0076338,us
92120,OPERATIONAL,San Diego Vegan Market,32.7830501,-117.0937961,us
92037,OPERATIONAL,Whole Foods Market,32.8687404,-117.2306258,us
92037,OPERATIONAL,Trader Joe's,32.8655088,-117.232262,us
92121,OPERATIONAL,ALDI,32.9060422,-117.172573,us
92121,OPERATIONAL,MM SuperMarket Inc,32.9110903,-117.2315571,us
92092,OPERATIONAL,Target Grocery,32.8799731,-117.237084,us
92037,OPERATIONAL,Whole Foods Market,32.8687404,-117.2306258,us
92037,OPERATIONAL,Trader Joe's,32.8655088,-117.232262,us
92122,OPERATIONAL,Sprouts Farmers Market,32.851622,-117.214383,us
92111,OPERATIONAL,99 Ranch Market,32.8336331,-117.1608732,us
92133,OPERATIONAL,Zion Market,32.83169169999999,-117.1554333,us
92133,OPERATIONAL,Mitsuwa Marketplace - San Diego,32.8190018,-117.1502442,us
92117,OPERATIONAL,Sprouts Farmers Market,32.8244543,-117.18374,us
92133,OPERATIONAL,Carnival Market,32.8087361,-117.1606227,us
92111,OPERATIONAL,Sieu Thi Thuan Phat Supermarket,32.78446700000001,-117.169781,us
92133,OPERATIONAL,Marukai,32.82148159999999,-117.147938,us
92133,OPERATIONAL,Nijiya Market San Diego Store,32.814243,-117.154087,us
92111,OPERATIONAL,H Mart Balboa,32.82071730000001,-117.1574763,us
92124,OPERATIONAL,Smart & Final Extra!,32.8211162,-117.1010798,us
92117,OPERATIONAL,99 Ranch Market,32.821638,-117.1769594,us
92120,OPERATIONAL,San Diego Vegan Market,32.7830501,-117.0937961,us
92117,OPERATIONAL,Smart & Final,32.8333901,-117.1795324,us
92133,OPERATIONAL,Target Grocery,32.8166789,-117.1516591,us
92111,OPERATIONAL,Kearny Mesa Market,32.8019707,-117.1569371,us
92111,OPERATIONAL,Bishops' Storehouse,32.8267594,-117.1493614,us
92111,OPERATIONAL,Home Storage Center,32.8269721,-117.1492666,us
92123,OPERATIONAL,palm drive,32.7967389,-117.1563463,us
92108,OPERATIONAL,Food bank Union,32.7769802,-117.1153156,us
92111,OPERATIONAL,Target Grocery,32.8221521,-117.1784939,us
92124,OPERATIONAL,Smart & Final Extra!,32.8211162,-117.1010798,us
92119,OPERATIONAL,Keil's Fresh Food Store,32.8036041,-117.0445404,us
92126,OPERATIONAL,Miramar Cash & Carry,32.8949697,-117.1283511,us
92126,OPERATIONAL,Seafood City Supermarket,32.91365700000001,-117.131636,us
92126,OPERATIONAL,Lucky Seafood Market,32.91885599999999,-117.1244519,us
92126,OPERATIONAL,H Mart San Diego,32.9186745,-117.1222018,us
92126,OPERATIONAL,Vinh Hung Supermarket,32.9094306,-117.1456972,us
92126,OPERATIONAL,Smart & Final Extra!,32.9156535,-117.1219728,us
92126,OPERATIONAL,Akshar Cash 'N' Carry,32.89624910000001,-117.1241773,us
92126,OPERATIONAL,Target Grocery,32.9102706,-117.1461447,us
92126,OPERATIONAL,Sprouts Farmers Market,32.9144639,-117.1480719,us
92126,OPERATIONAL,Mira Mesa Marketplace East,32.9163126,-117.1184587,us
92127,OPERATIONAL,Jimbo's,33.0189576,-117.1139668,us
92128,OPERATIONAL,Barons Market Rancho Bernardo,33.023921,-117.0758001,us
92127,OPERATIONAL,Sprouts Farmers Market,33.01950409999999,-117.1235319,us
92127,OPERATIONAL,Target Grocery,33.0194524,-117.1251884,us
92128,OPERATIONAL,Sprouts Farmers Market,32.981162,-117.080148,us
92128,OPERATIONAL,Trader Joe's,32.9821123,-117.0750506,us
92128,OPERATIONAL,Barons Market Rancho Bernardo,33.023921,-117.0758001,us
92127,OPERATIONAL,Jimbo's,33.0189576,-117.1139668,us
92064,OPERATIONAL,North Park Produce,32.95282379999999,-117.0647366,us
92128,OPERATIONAL,Sprouts Farmers Market,33.003469,-117.058409,us
92064,OPERATIONAL,Target Grocery,32.9805582,-117.0602928,us
92014,OPERATIONAL,Jimbo’s,32.9499304,-117.2337335,us
92130,OPERATIONAL,Trader Joe's,32.9611431,-117.1914046,us
92121,OPERATIONAL,MM SuperMarket Inc,32.9110903,-117.2315571,us
92139,OPERATIONAL,La Palapa Market,32.6756385,-117.0644364,us
91950,OPERATIONAL,Kentstop Water Store,32.6855785,-117.0712007,us
92154,OPERATIONAL,El Picador Foods,32.5738648,-117.0554393,us
92173,OPERATIONAL,Liva Distributor,32.5689316,-117.064476,us
92173,OPERATIONAL,La Bodega Market,32.552844,-117.0423699,us
92173,OPERATIONAL,Pancho Villa Mercado,32.5616858,-117.063112,us
92173,OPERATIONAL,Family Dollar,32.5489288,-117.0344915,us
