,name,lat,lng,postcode,county
0,Wright's Field,32.8194935,-116.763489,91901,San Diego County
1,Viejas Park,32.8424372,-116.7041285,91901,San Diego County
2,Loveland Fishing Access,32.79975029999999,-116.7604335,91901,San Diego County
3,Sweetwater Summit Regional Park,32.6825083,-117.0025472,91902,San Diego County
4,Sweetwater County Park,32.6825925,-117.0019038,91902,San Diego County
5,Eastview Community Park,32.6830104,-117.0007862,91902,San Diego County
6,Pleasant Park,32.6661441,-117.0138532,91902,San Diego County
7,Sparks Family Garden,32.6773535,-117.0184555,91902,San Diego County
8,Bonita Long Canyon Park,32.6571234,-116.9946849,91913,San Diego County
9,Sweetwater Community Garden,32.6767119,-117.0192768,91902,San Diego County
10,Sweetwater Reservoir Parking,32.68781510000001,-116.9971355,91902,San Diego County
11,Sweetwater - Hiking Trail,32.6748217,-117.0231341,91902,San Diego County
12,Sweetwater Regional Park,32.67477540000001,-117.0231427,91902,San Diego County
13,Xross-Camp At Rohr Park by Porter,32.67291400000001,-117.0252613,91902,San Diego County
14,Rohr Park baseball restroom,32.6658947,-117.0290252,91902,San Diego County
15,Lake Morena RV Park,32.6764915,-116.5084289,91906,San Diego County
16,Pacific Crest Trail - Lake Morena trailhead,32.682488,-116.5168956,91906,San Diego County
17,Pacific Crest Trail,32.684843,-116.5166649,91906,San Diego County
18,Chula Vista Recreation Department,32.6413961,-117.0849597,91950,San Diego County
20,Hilltop Park,32.6287737,-117.0628587,91911,San Diego County
21,Walk Chula Vista Recreation Department,32.638044,-117.0824422,91910,San Diego County
22,Memorial Park,32.63877290000001,-117.0810631,91910,San Diego County
23,Chula Vista Friendship Park,32.6417717,-117.0836373,91910,San Diego County
24,Hilltop Park Trailhead,32.6282848,-117.0611417,91911,San Diego County
25,Sweetwater Park Trail,32.6481157,-117.0575673,91910,San Diego County
26,Gayle L. McCandliss Park,32.63510779999999,-117.0461239,91910,San Diego County
27,Dignity Memorial Pre-planning,32.6522284,-117.0476064,91910,San Diego County
28,Terra Nova Park,32.6451533,-117.0429975,91910,San Diego County
29,Otay Valley Regional Park,32.5886294,-117.062309,92154,San Diego County
30,Connoley Park Entrance,32.5994406,-117.0554051,91911,San Diego County
31,Orange Park,32.6008836,-117.0676953,91911,San Diego County
32,Greg Rogers Park,32.62044289999999,-117.0343741,91911,San Diego County
33,Otay Park,32.5974293,-117.0569741,91911,San Diego County
34,Los Ninos Park,32.5993547,-117.04426,91911,San Diego County
35,Lauderbach Park,32.6085597,-117.068927,91911,San Diego County
36,Palomar Park,32.6128007,-117.0407978,91911,San Diego County
37,San Diego Gas and Electric Park,32.6026557,-117.05348,91911,San Diego County
38,Loma Verde Park,32.6029173,-117.0474112,91911,San Diego County
39,Palomar Apartments Community Garden,32.60881929999999,-117.0608519,91911,San Diego County
40,Holiday Estates II,32.597528,-117.0534592,91911,San Diego County
41,Bay Boulevard Park,32.5958815,-117.0377099,91911,San Diego County
42,Rio East Community Pool and Park,32.5929292,-117.0396004,91911,San Diego County
43,Valle Lindo Park,32.6022926,-117.0310431,91911,San Diego County
44,Chula vista library dog park,32.60191259999999,-117.0685523,91911,San Diego County
45,Rios Avenue Staging Area,32.5909254,-117.0438147,91911,San Diego County
46,Greg Cox Bike Park,32.5908201,-117.0399286,92154,San Diego County
47,Otay River Staging Area,32.592515,-117.0631273,92154,San Diego County
48,Greg Cox Bike Park,32.59109019999999,-117.0382179,91911,San Diego County
49,All Seasons Park,32.6130587,-116.9753082,91913,San Diego County
50,Santa Cora Park,32.6295888,-116.9846639,91913,San Diego County
51,Santa Venetia Park,32.6255479,-116.9767367,91915,San Diego County
52,Cottonwood Park,32.63245539999999,-116.9829579,91913,San Diego County
53,Jacaranda Park,32.6157693,-116.9971278,91913,San Diego County
54,Harvest Park,32.63020669999999,-116.9909219,91913,San Diego County
55,McMillin Lomas Verdes Neighborhood Park,32.6245371,-116.9816671,91913,San Diego County
56,Montecito Park,32.617619,-116.9891149,91913,San Diego County
57,Mulberry Park,32.614982,-116.981092,91915,San Diego County
59,Oak Crest Park,32.6283797,-116.993891,91913,San Diego County
60,Heritage Park,32.6246516,-116.9976833,91913,San Diego County
61,Wisteria Park,32.6208305,-116.9982255,91913,San Diego County
62,Grove Park,32.6139924,-116.9948261,91913,San Diego County
63,Wolf Canyon Park,32.61408,-116.975275,91913,San Diego County
64,Town Center Dog Park,32.62278730000001,-116.9704719,91915,San Diego County
65,Alcala Park,32.6349032,-116.989976,91913,San Diego County
66,Meadow Park,32.61021759999999,-116.9953186,91913,San Diego County
67,Orchard Park,32.6251845,-117.0026165,91913,San Diego County
68,Summerland Park,32.6070559,-116.9926421,91913,San Diego County
69,Sunset View Park,32.6330721,-116.961942,91915,San Diego County
71,Windingwalk Park,32.6234248,-116.9557985,91915,San Diego County
72,Mackenzie Creek Park,32.6595836,-116.9698348,91913,San Diego County
73,Mountain Hawk Park,32.6359367,-116.9338523,91915,San Diego County
74,CHULA VISTA BMX,32.6303576,-116.9372199,91915,San Diego County
75,Cottonwood Park,32.63245539999999,-116.9829579,91913,San Diego County
76,Chula Vista Community Park,32.6440785,-116.9676274,91915,San Diego County
77,Scobee Park,32.6535884,-116.9647641,91913,San Diego County
78,Sweetwater Summit Regional Park,32.6825083,-117.0025472,91902,San Diego County
79,Santa Cora Park,32.6295888,-116.9846639,91913,San Diego County
80,Santa Venetia Park,32.6255479,-116.9767367,91915,San Diego County
81,Bonita Long Canyon Park,32.6571234,-116.9946849,91913,San Diego County
82,Park,32.6635399,-116.9607536,91914,San Diego County
83,Mother Miguel Mountain Trailhead,32.67234939999999,-116.9721442,91914,San Diego County
84,Mount San Miguel Dog Park,32.6720257,-116.9727116,91914,San Diego County
86,Proctor Valley Natural Resource Area,32.6578424,-116.9345609,91914,San Diego County
87,Augusta Park,32.6468803,-116.9570946,91915,San Diego County
88,Rock House Trail,32.6847138,-116.9638178,91914,San Diego County
89,Otay Lakes County Park,32.6054185,-116.9304673,91915,San Diego County
90,Sunset View Park,32.6330721,-116.961942,91915,San Diego County
91,All Seasons Park,32.6130587,-116.9753082,91913,San Diego County
92,Windingwalk Park,32.6234248,-116.9557985,91915,San Diego County
93,Olympic Xeriscape Garden,32.62108,-116.9370228,91915,San Diego County
94,CHULA VISTA BMX,32.6303576,-116.9372199,91915,San Diego County
95,Mountain Hawk Park,32.6359367,-116.9338523,91915,San Diego County
96,Santa Venetia Park,32.6255479,-116.9767367,91915,San Diego County
97,Cottonwood Park,32.63245539999999,-116.9829579,91913,San Diego County
98,Santa Cora Park,32.6295888,-116.9846639,91913,San Diego County
99,Jacaranda Park,32.6157693,-116.9971278,91913,San Diego County
100,Mackenzie Creek Park,32.6595836,-116.9698348,91913,San Diego County
101,Chula Vista Community Park,32.6440785,-116.9676274,91915,San Diego County
102,Scobee Park,32.6535884,-116.9647641,91913,San Diego County
103,Harvest Park,32.63020669999999,-116.9909219,91913,San Diego County
104,Ballard's Yard & Landscape Maintenance,32.6292488,-116.9412503,91915,San Diego County
105,Eastlake Little League Juniors Field,32.6321138,-116.9421846,91915,San Diego County
106,Chula Vista Fun Run,32.630394,-116.938251,91915,San Diego County
107,Stylus Park,32.6192196,-116.9647453,91915,San Diego County
108,Orion Park,32.6142376,-116.9624298,91915,San Diego County
109,Border Field State Park,32.5450305,-117.12247,91932,San Diego County
110,Tijuana River National Estuarine Research Reserve,32.5513045,-117.114509,91932,San Diego County
111,Montgomery-Waller Recreation Center,32.5790575,-117.0688351,92154,San Diego County
112,Tijuana Slough National Wildlife Refuge,32.5590394,-117.1233437,91932,San Diego County
113,Tijuana Slough National Wildlife Refuge,32.5560167,-117.1278582,91932,San Diego County
114,Tijuana River Valley Regional Park Community Garden,32.5560556,-117.0847642,92154,San Diego County
116,Montgomery-Waller Community Park,32.5803094,-117.0686398,92154,San Diego County
117,Tijuana River Valley Regional Park,32.5448464,-117.0746519,92154,San Diego County
118,Veterans Park,32.578229,-117.1163013,91932,San Diego County
119,Tijuana River County Open Space Preserve,32.5515305,-117.0926469,91932,San Diego County
120,La Palma Mobile Estates,32.5851219,-117.0825341,92154,San Diego County
122,Tijuana River Estuary,32.5692604,-117.1230793,91932,San Diego County
123,Circles Park,32.5693839,-117.112284,91932,San Diego County
125,Tijuana River National Estuary Visitor Center,32.5750656,-117.1264523,91932,San Diego County
126,Imperial Beach Dog Park,32.5786104,-117.1151225,91932,San Diego County
127,North Beach Trail,32.5646246,-117.1321871,91932,San Diego County
128,Reama park,32.5780822,-117.129408,91932,San Diego County
129,Shepherd's Trail Catholic Retreat Center and Campground,32.695872,-116.758625,91935,San Diego County
130,Skyline Ranch RV Park & Cmpgrn,32.731536,-116.776875,91935,San Diego County
131,Lee Valley,32.712027,-116.8161353,91935,San Diego County
132,Honey Springs Ranch Trailhead,32.670498,-116.8232673,91935,San Diego County
133,Mt. Helix Park,32.7669811,-116.9825033,91941,San Diego County
134,Collier Park / La Mesa Springs,32.7593218,-117.0148283,91941,San Diego County
135,Upper Quad,32.7808884,-116.9871278,92020,San Diego County
136,MacArthur Park,32.7696554,-117.0154827,91941,San Diego County
137,Eucalyptus County Park,32.7595486,-117.0007037,91941,San Diego County
138,Collier Park,32.7590035,-117.0146277,91941,San Diego County
139,Estrella Country Park,32.753051,-116.9844845,91977,San Diego County
140,Bancroft County Park,32.7453283,-117.0011541,91977,San Diego County
141,WORLD MEMORIAL,32.745911,-117.009714,91977,San Diego County
142,Binder Lost’s,32.7763108,-116.9771969,91941,San Diego County
143,The Lookout,32.76601840000001,-117.0167837,91941,San Diego County
144,Lamar County Park,32.7404718,-117.0069483,91977,San Diego County
145,Estrella County Park,32.7534313,-116.9848743,91977,San Diego County
146,La Mesita Park,32.7895137,-117.0056819,91942,San Diego County
147,San Diego RV Resort,32.7727184,-117.0372866,91942,San Diego County
148,Mission Trails Regional Park Lake Murray,32.7824529,-117.0392978,91942,San Diego County
149,MacArthur Park,32.7696554,-117.0154827,91941,San Diego County
150,Collier Park / La Mesa Springs,32.7593218,-117.0148283,91941,San Diego County
151,La Mesa Secret Stairs,32.7580243,-117.0226802,91941,San Diego County
152,San Carlos Recreation Center,32.7981786,-117.0217702,92119,San Diego County
153,Aztec Park,32.7786281,-117.0266928,91942,San Diego County
154,Highwood Park,32.7559733,-117.0287601,92112,San Diego County
155,Sunset Park,32.7819741,-117.0376775,91942,San Diego County
156,Collier Park,32.7590035,-117.0146277,91941,San Diego County
157,La Mesa Community Garden,32.7709997,-117.0167615,91942,San Diego County
158,THE PLAYGROUND,32.779,-117.0122,91942,San Diego County
159,Jackson Park,32.78554500000001,-117.0201632,91942,San Diego County
160,The Lookout,32.76601840000001,-117.0167837,91941,San Diego County
161,Briercrest Park,32.7811529,-117.0027176,91942,San Diego County
162,Lake Murray Trail Head,32.7812965,-117.0399852,91942,San Diego County
163,Lake Murray Bike Trailhead,32.7810758,-117.0400715,91942,San Diego County
164,Lake Murray run trail,32.7882231,-117.036037,92119,San Diego County
165,Junior Seau Sports Complex,32.7896815,-117.0038466,91942,San Diego County
166,Treganza Heritage Park,32.7397113,-117.0316695,91945,San Diego County
167,Ildica Street County Park,32.72779049999999,-117.0137405,91977,San Diego County
168,Chollas Lake Park,32.7373747,-117.0605242,92112,San Diego County
169,Lemon Grove Park,32.7300207,-117.0228985,91945,San Diego County
171,Lemon Grove Community Garden,32.7390668,-117.0320185,91945,San Diego County
172,Firefighters Park,32.7392577,-117.0296279,91945,San Diego County
173,Monterey Heights Park,32.7237342,-117.0336051,91945,San Diego County
174,Promenade Park,32.74406169999999,-117.0306739,91945,San Diego County
175,SoloBee Native Bee Shelter,32.7440099,-117.0281463,91945,San Diego County
176,Lemon Grove Veterans Memorial,32.7251136,-117.0207321,91945,San Diego County
177,Kunkel Park,32.7454401,-117.0249459,91945,San Diego County
178,Vista La Mesa Park,32.7487613,-117.047963,91941,San Diego County
179,Dog Park,32.7154038,-117.0467751,92114,San Diego County
180,Goodland Acres County Park,32.7366935,-117.0089885,91977,San Diego County
181,Keiller Neighborhood Park,32.71253129999999,-117.0411971,92114,San Diego County
182,Chollas Lake,32.737393,-117.0592043,92112,San Diego County
183,Firemens Park,32.7392056,-117.0296637,91945,San Diego County
184,Monterey Heights Park,32.7245239,-117.033434,91945,San Diego County
185,Goodland Acres Park,32.7374663,-117.0093395,91977,San Diego County
186,San Diego Metro KOA Resort,32.6566687,-117.0807169,91950,San Diego County
187,El Toyon Recreation Center,32.68543350000001,-117.0876162,91950,San Diego County
188,Kimball Park,32.6720164,-117.102425,91950,San Diego County
189,Sporturf International dba STI San Diego,32.6584891,-117.102139,91950,San Diego County
190,San Diego KOA RV Storage,32.6566119,-117.0807342,91950,San Diego County
191,Lincoln Acres Park,32.6668312,-117.0711185,91950,San Diego County
192,Parque,32.669731,-117.0866367,91950,San Diego County
193,LAS PALMAS PARK,32.6681209,-117.0840751,91950,San Diego County
194,A Avenue Parking Lot,32.6716695,-117.103618,91950,San Diego County
195,National City Recreation Services,32.67232989999999,-117.1037366,91950,San Diego County
196,Morgan Square Plaza,32.6750153,-117.1063351,91950,San Diego County
197,Paradise Creek Educational Park,32.6639574,-117.1062913,91950,San Diego County
198,KOA,32.6561946,-117.0829478,91910,San Diego County
199,El Toyon Park,32.687232,-117.0850305,91950,San Diego County
200,"Joe's Pocket Farm, Mundo Gardens",32.68883199999999,-117.0926652,91950,San Diego County
201,Eucalyptus Dog Park,32.64959890000001,-117.0903178,91910,San Diego County
202,San Diego Tennis Center,32.6491177,-117.0903055,91910,San Diego County
203,Bayshore Bikeway,32.6529599,-117.1091942,91950,San Diego County
204,41st St Mini Park,32.6895323,-117.1058539,92113,San Diego County
205,Butterfly Park,32.6700025,-117.0863035,91950,San Diego County
207,National Forest Scenic Byway,32.8139379,-116.5087496,91962,San Diego County
208,Conquistador Trail,32.8160582,-116.4929264,91962,San Diego County
209,Cottonwood Falls,32.8210135,-116.4910556,91962,San Diego County
210,Sunrise National Scenic Byway,32.8123116,-116.5093627,91962,San Diego County
211,Arrowhead Mountain,32.8211969,-116.4635596,91948,San Diego County
213,Pacific Crest Trail - Fred Canyon trailhead,32.7717107,-116.4390238,91948,San Diego County
214,Ildica Street County Park,32.72779049999999,-117.0137405,91977,San Diego County
215,Dictionary Hill,32.7281606,-116.9877026,91977,San Diego County
216,Sweetwater Lane Community Park,32.7172528,-117.0067012,91977,San Diego County
217,Spring Valley County Park,32.7071323,-117.0069483,91977,San Diego County
219,Dictionary Hill Open Space Preserve,32.7267139,-116.9834572,91977,San Diego County
220,Bancroft Creek,32.72644080000001,-116.9833081,91977,San Diego County
221,Goodland Acres County Park,32.7366935,-117.0089885,91977,San Diego County
222,HATFIELD PARK,32.7312594,-116.978286,91977,San Diego County
223,Lamar County Park,32.7404718,-117.0069483,91977,San Diego County
224,Hansen Park,32.7341776,-116.9779527,91977,San Diego County
225,Lemon Grove Veterans Memorial,32.7251136,-117.0207321,91945,San Diego County
226,Bancroft County Park,32.7453283,-117.0011541,91977,San Diego County
227,Goodland Acres Park,32.7374663,-117.0093395,91977,San Diego County
228,Water Conservation Garden,32.7427165,-116.9395461,92019,San Diego County
229,San Diego National Wildlife Refuge Interpretive Loop,32.7297943,-116.9408355,91978,San Diego County
230,Sweetwater River Trail,32.7339559,-116.9410287,91978,San Diego County
231,Hilton Head County Park,32.7448572,-116.9235854,92019,San Diego County
232,Cottonwood Three County Park,32.7446821,-116.9237909,92019,San Diego County
233,Dictionary Hill,32.7281606,-116.9877026,91977,San Diego County
234,Steele Canyon County Park,32.7377629,-116.91193,92019,San Diego County
235,Millar Ranch Rd Hiking Trail,32.7176172,-116.9277491,91978,San Diego County
236,San Diego National Wildlife Refuge Interpretive Loop,32.7104595,-116.958428,91978,San Diego County
237,National Wildlife Refuge Spring Valley,32.7316643,-116.9417328,91978,San Diego County
238,Par 4 Drive Trailhead,32.7388605,-116.9191985,92019,San Diego County
239,Rock House Trail,32.6847138,-116.9638178,91914,San Diego County
240,Fury Park,32.7464868,-116.9358621,92019,San Diego County
241,San Diego National Wildlife Refuge,32.6871058,-116.9101538,91935,San Diego County
242,HATFIELD PARK,32.7312594,-116.978286,91977,San Diego County
243,North Cuyamaca College Trail,32.7501285,-116.9410564,91978,San Diego County
244,Hansen Park,32.7341776,-116.9779527,91977,San Diego County
245,Bancroft Creek,32.72644080000001,-116.9833081,91977,San Diego County
246,Dictionary Hill Open Space Preserve,32.7267139,-116.9834572,91977,San Diego County
247,Wieghorst Trail,32.7523515,-116.9380505,91978,San Diego County
248,Waterwise Botanicals,33.297022,-117.152383,92026,San Diego County
249,Fire Garden Metal Work,33.268074,-117.243687,92003,San Diego County
250,The Fire Garden,33.2681715,-117.243714,92003,San Diego County
251,"Wild Wonders, Inc",33.2798268,-117.2369101,92003,San Diego County
252,Bonsall Preserve,33.2925264,-117.218203,92003,San Diego County
253,Mission Ranch,33.25290270000001,-117.2018486,92084,San Diego County
254,Aqueduct public works access road,33.2998623,-117.1610892,92003,San Diego County
255,Bonsall Preserve,33.2910469,-117.2238845,92003,San Diego County
256,Bonsall Resv,33.2971932,-117.2253545,92028,San Diego County
262,San Diego Botanic Garden,33.0557156,-117.2794634,92024,San Diego County
265,Fletcher Cove Beach Park,32.99137619999999,-117.2732595,92075,San Diego County
266,San Elijo Lagoon Nature Center,33.0133595,-117.2742433,92007,San Diego County
267,Encinitas Community Park,33.0324759,-117.2807797,92007,San Diego County
268,Encinitas Dog Park,33.0319465,-117.2831796,92007,San Diego County
269,Annie's Canyon Trail,33.0000382,-117.2582537,92075,San Diego County
270,Moonlight Overlook,33.0467399,-117.2976689,92024,San Diego County
271,Power Lines Dog Park,33.05163509999999,-117.2530678,92024,San Diego County
272,Cottonwood Creek Park,33.0495497,-117.2930321,92024,San Diego County
273,Wiro Park,33.05073640000001,-117.2355474,92024,San Diego County
274,Oakcrest Park East,33.045481,-117.291493,92024,San Diego County
275,San Elijo Lagoon Ecological Reserve and Nature Center,33.0157934,-117.2503046,92067,San Diego County
277,Glen Park,33.0185156,-117.280287,92007,San Diego County
278,George Berkich Playfield,33.0239975,-117.2839927,92007,San Diego County
279,Tower 16,33.0167627,-117.2825819,92007,San Diego County
281,"Encinitas Skate Park, (Poods)",33.0340906,-117.2825192,92007,San Diego County
283,Holiday Park,33.1602063,-117.3397955,92008,San Diego County
285,Agua Hedionda Lagoon Foundation (Discovery Center),33.1398426,-117.3075496,92010,San Diego County
286,Calavera Hills Community Park,33.166044,-117.299201,92010,San Diego County
287,Pine Avenue Park,33.1574105,-117.3419992,92008,San Diego County
288,Cannon Park,33.1329817,-117.3353881,92008,San Diego County
289,Terramar,33.1281707,-117.3332188,92008,San Diego County
290,Business Park Recreational Facility,33.13926349999999,-117.2909411,92010,San Diego County
291,Ann D. L'Heureux Memorial Dog Park,33.171399,-117.3155398,92010,San Diego County
292,Carlsbad Parks & Recreation,33.1589396,-117.343426,92008,San Diego County
293,Poinsettia Park,33.1150148,-117.3071902,92011,San Diego County
294,Lake Calaveras Hiking Trail,33.1692003,-117.2851578,92010,San Diego County
295,Calavera Lake,33.1708991,-117.2842292,92010,San Diego County
296,Hidden Canyon Community Park,33.1735049,-117.3153011,92010,San Diego County
297,Aviara Community Park,33.1140613,-117.2821913,92011,San Diego County
298,Hosp Grove Park,33.1769098,-117.3411727,92008,San Diego County
299,Magee Park,33.1611838,-117.3538435,92008,San Diego County
300,South Carlsbad State Beach Campground,33.1012834,-117.3185839,92011,San Diego County
301,Carlsbad Trailer Plaza,33.163582,-117.351795,92008,San Diego County
303,Cadencia Park,33.09165,-117.2327203,92009,San Diego County
305,San Elijo Park,33.10109449999999,-117.1993528,92078,San Diego County
306,The Spa at La Costa,33.0916313,-117.2661604,92009,San Diego County
307,Leo Carrillo Ranch Historic Park,33.1189606,-117.2371139,92009,San Diego County
308,Alga Norte Community Park,33.1164669,-117.2633876,92009,San Diego County
309,Aviara Community Park,33.1140613,-117.2821913,92011,San Diego County
310,Recreation Republic,33.104624,-117.218715,92009,San Diego County
311,La Costa Canyon Park,33.08918939999999,-117.2424107,92009,San Diego County
312,San Elijo Hills Dog Park,33.10075069999999,-117.1999501,92078,San Diego County
313,Power Lines Dog Park,33.05163509999999,-117.2530678,92024,San Diego County
314,Mrgarden.net,33.13669730000001,-117.2268704,92078,San Diego County
315,Rancho La Costa Reserve,33.0873114,-117.2142747,92009,San Diego County
316,San Diego Coast Park Headquarters,33.095442,-117.2499749,92009,San Diego County
317,Jardín Park,33.1035689,-117.2558563,92009,San Diego County
318,Centella Street Community Garden,33.0795194,-117.2394754,92009,San Diego County
319,Gatto Firewood,33.107614,-117.2306601,92009,San Diego County
320,Tot Lot,33.0769449,-117.2427048,92009,San Diego County
321,Rancho Santa Fe Canal,33.1048301,-117.2255865,92078,San Diego County
322,Dawson Los Monos Cyn Reserve,33.1484723,-117.2480867,92081,San Diego County
324,Agua Hedionda Lagoon Foundation (Discovery Center),33.1398426,-117.3075496,92010,San Diego County
325,Calavera Hills Community Park,33.166044,-117.299201,92010,San Diego County
326,Buena Vista Park,33.1577789,-117.2463566,92081,San Diego County
327,Lake Calaveras Hiking Trail,33.1692003,-117.2851578,92010,San Diego County
328,Calavera Lake,33.1708991,-117.2842292,92010,San Diego County
329,Business Park Recreational Facility,33.13926349999999,-117.2909411,92010,San Diego County
330,Dawson Los Monos Canyon Reserve,33.14768400000001,-117.2525927,92081,San Diego County
331,Ann D. L'Heureux Memorial Dog Park,33.171399,-117.3155398,92010,San Diego County
332,Hidden Canyon Community Park,33.1735049,-117.3153011,92010,San Diego County
333,Aviara Community Park,33.1140613,-117.2821913,92011,San Diego County
334,Lake Park,33.17379589999999,-117.2554866,92081,San Diego County
335,Alga Norte Community Park,33.1164669,-117.2633876,92009,San Diego County
336,South Buena Vista Park,33.1486286,-117.2432993,92081,San Diego County
337,Oak Riparian Park,33.1767074,-117.2699998,92056,San Diego County
338,Ontario Orchids Inc,33.1864776,-117.2659961,92081,San Diego County
339,Lake Calavera Trail Head - Cannon Road,33.1559674,-117.2871711,92010,San Diego County
340,Carlsbad Highlands Ecological Reserve,33.1667435,-117.2793441,92056,San Diego County
341,Calavera Crest,33.1682851,-117.2826533,92010,San Diego County
343,Trailer Rancho Campground,33.0749693,-117.3043335,92024,San Diego County
344,Agua Hedionda Lagoon Foundation (Discovery Center),33.1398426,-117.3075496,92010,San Diego County
346,Aviara Community Park,33.1140613,-117.2821913,92011,San Diego County
347,Poinsettia Park,33.1150148,-117.3071902,92011,San Diego County
348,South Carlsbad State Beach Campground,33.1012834,-117.3185839,92011,San Diego County
349,Alga Norte Community Park,33.1164669,-117.2633876,92009,San Diego County
350,The Spa at La Costa,33.0916313,-117.2661604,92009,San Diego County
351,Business Park Recreational Facility,33.13926349999999,-117.2909411,92010,San Diego County
352,Leucadia Oaks Park,33.0742323,-117.3044103,92011,San Diego County
353,Terramar,33.1281707,-117.3332188,92008,San Diego County
354,Cannon Park,33.1329817,-117.3353881,92008,San Diego County
355,Eucalyptus Grove Trail,33.1054986,-117.294517,92011,San Diego County
356,Poinsettia Dog Park,33.1150543,-117.306019,92011,San Diego County
357,FIT4MOM San Diego- Carlsbad,33.11526,-117.3065538,92011,San Diego County
358,Lagoon Trail At Pelican Road,33.09409480000001,-117.2948898,92011,San Diego County
359,Hidden Valley Trail Palomar Airport Road Trailhead,33.1227595,-117.295839,92011,San Diego County
360,Hidden Valley Trail Aviara East Access,33.1230545,-117.3017197,92011,San Diego County
361,Batiquitos Lagoon North Bluff Trail Windrose Circle Trailhead,33.0923738,-117.3085155,92011,San Diego County
362,Del Mar Fairgrounds,32.97361540000001,-117.2565588,92014,San Diego County
364,Torrey Pines State Reserve,32.9268576,-117.2593912,92037,San Diego County
365,Powerhouse Park & Beach,32.96077760000001,-117.2680718,92014,San Diego County
366,Seagrove Park,32.9590582,-117.2674355,92014,San Diego County
367,Fletcher Cove Beach Park,32.99137619999999,-117.2732595,92075,San Diego County
368,Crest Canyon Park,32.9573375,-117.2530392,92014,San Diego County
369,San Dieguito River Park,32.9780341,-117.2474932,92014,San Diego County
370,Torrey Pines Extension,32.9383843,-117.2527457,92014,San Diego County
371,San Diego Polo Fields,32.9851603,-117.2171526,92014,San Diego County
372,Annie's Canyon Trail,33.0000382,-117.2582537,92075,San Diego County
373,Torrey Pines State Beach,32.9336768,-117.2606779,92014,San Diego County
374,Carmel Mountain Preserve,32.9399434,-117.2131026,92130,San Diego County
375,Torrey Pines Beach Parking,32.92755989999999,-117.2591722,92037,San Diego County
376,Friends of Del Mar Parks,32.9564499,-117.2638226,92014,San Diego County
377,Carmel Grove Park,32.9420154,-117.2317855,92130,San Diego County
378,Free Flight,32.970057,-117.264117,92014,San Diego County
379,Ashley Falls Park,32.95744910000001,-117.2086714,92130,San Diego County
380,Solana Highlands Park,32.9560101,-117.2387675,92130,San Diego County
381,Carmel Del Mar Park,32.9400328,-117.2277432,92130,San Diego County
382,John F Kennedy Park,32.7981731,-116.9186385,92021,San Diego County
383,Nancy Jane County Park,32.809552,-116.864396,92021,San Diego County
384,South Lane County Park,32.800791,-116.8670372,92021,San Diego County
385,Woodhaven Park,32.7578269,-116.9116283,92019,San Diego County
386,South Lane Park,32.8023992,-116.8663713,92021,San Diego County
387,Cottonwood Two County Park,32.7479584,-116.913854,92019,San Diego County
388,Mt. Helix Park,32.7669811,-116.9825033,91941,San Diego County
389,La Mesita Park,32.7895137,-117.0056819,91942,San Diego County
390,Harry Griffen Park,32.7839851,-116.9888729,92020,San Diego County
391,John F Kennedy Park,32.7981731,-116.9186385,92021,San Diego County
392,Renette Park,32.7835132,-116.9674593,92020,San Diego County
393,Hillside Center,32.8059992,-116.9843762,92020,San Diego County
394,Vacationer RV Resort,32.805951,-116.923255,92021,San Diego County
395,Wells Park,32.7999757,-116.942355,92020,San Diego County
396,Bill Beck City Park,32.80184309999999,-116.9772398,92020,San Diego County
397,El Cajon Recreation Department,32.7834945,-116.9679493,92020,San Diego County
398,Upper Quad,32.7808884,-116.9871278,92020,San Diego County
399,Concert On The Green,32.794252,-116.9602772,92020,San Diego County
400,Circle Community Garden,32.790773,-116.961347,92020,San Diego County
401,Canine Corners Dog Park,32.7864304,-116.9861591,92020,San Diego County
402,Sky Ranch Park,32.8343067,-116.9533389,92071,San Diego County
403,Rattlesnake Mountain Preserve,32.8355884,-116.9505143,92071,San Diego County
404,San Carlos Recreation Center,32.7981786,-117.0217702,92119,San Diego County
405,Tuttle Park,32.7792608,-116.9664775,92020,San Diego County
406,Northmont Park,32.7882927,-117.0002409,91942,San Diego County
407,Bostonia Park & Recreation Center,32.80908429999999,-116.9323327,92021,San Diego County
408,Lake Jennings,32.8524,-116.8865904,92040,San Diego County
409,Rancho Los Coches RV Park,32.8380269,-116.9016279,92021,San Diego County
410,Flinn Springs County Park,32.84901360000001,-116.8596366,92021,San Diego County
411,Rios Canyon Little League fields,32.8570996,-116.859226,92021,San Diego County
412,Lakeside's River Park Conservancy,32.8414924,-116.9093643,92040,San Diego County
413,Lindo Lake County Park,32.85879549999999,-116.9178793,92040,San Diego County
414,Circle RV Resort,32.8155235,-116.9155913,92021,San Diego County
415,Nancy Jane County Park,32.809552,-116.864396,92021,San Diego County
416,Greenfield trail,32.8282819,-116.856523,92021,San Diego County
417,Brothers Diaz Landscaping,32.8364485,-116.8974961,92021,San Diego County
418,Valleyview Truck Trailhead,32.8242004,-116.905237,92021,San Diego County
419,Lake Jennings Campground,32.8616695,-116.8922467,92040,San Diego County
420,South Lane County Park,32.800791,-116.8670372,92021,San Diego County
421,Historic Flume Trailhead,32.8669314,-116.8939559,92040,San Diego County
422,"San Diego River Park Trail, El Monte Valley",32.8705486,-116.8895175,92040,San Diego County
423,Endangered Habitat Conservancy: Hanson El Monte Pond,32.868854,-116.8992816,92040,San Diego County
424,Lakeside Skatepark,32.8579285,-116.9198446,92040,San Diego County
425,South Lane Park,32.8023992,-116.8663713,92021,San Diego County
426,Old Ironsides County Park,32.8227154,-116.8271627,92019,San Diego County
427,San Diego Botanic Garden,33.0557156,-117.2794634,92024,San Diego County
431,Cadencia Park,33.09165,-117.2327203,92009,San Diego County
432,Trailer Rancho Campground,33.0749693,-117.3043335,92024,San Diego County
433,Power Lines Dog Park,33.05163509999999,-117.2530678,92024,San Diego County
434,Wiro Park,33.05073640000001,-117.2355474,92024,San Diego County
435,Encinitas Community Park,33.0324759,-117.2807797,92007,San Diego County
436,Encinitas Dog Park,33.0319465,-117.2831796,92007,San Diego County
437,The Spa at La Costa,33.0916313,-117.2661604,92009,San Diego County
438,Moonlight Overlook,33.0467399,-117.2976689,92024,San Diego County
439,Cottonwood Creek Park,33.0495497,-117.2930321,92024,San Diego County
440,Oakcrest Park East,33.045481,-117.291493,92024,San Diego County
441,Leucadia Oaks Park,33.0742323,-117.3044103,92011,San Diego County
442,La Costa Canyon Park,33.08918939999999,-117.2424107,92009,San Diego County
443,Las Verdes Park,33.0552161,-117.2770384,92024,San Diego County
446,Villanitas HOA Park,33.0539437,-117.2550066,92024,San Diego County
448,Kit Carson Park,33.0782148,-117.0591583,92025,San Diego County
450,Felicita Mini Park,33.1047701,-117.0735402,92025,San Diego County
452,Escondido National Little L G,33.1286929,-117.0374783,92027,San Diego County
453,spvpa,33.101044,-117.075401,92025,San Diego County
454,San Pasqual Trail Peak - Raptor Ridge,33.0806323,-117.0179011,92025,San Diego County
455,End22,33.097432,-117.0200979,92025,San Diego County
456,San Pasqual Baseball field and parking,33.0735561,-117.0524426,92025,San Diego County
457,Arroyo De Oro Childrens Play Area,33.0815282,-117.0607353,92025,San Diego County
459,Kit Carson adult softball complex,33.0713963,-117.0610069,92025,San Diego County
463,Lake Hodges Run,33.0666679,-117.0678006,92025,San Diego County
464,San Dieguito River Park,33.06726859999999,-117.0669466,92025,San Diego County
465,"Ysabel Creek Rd Staging Area, San Dieguito River Park",33.07747750000001,-116.9874763,92025,San Diego County
466,Bernardo Mountain Summit Trail - Access Road,33.0666884,-117.067987,92025,San Diego County
467,Corry Wildlife Control,33.2076939,-117.109172,92026,San Diego County
468,Cougar Pass Trailhead,33.2096715,-117.086052,92026,San Diego County
469,Merriam Mountains boulders,33.2282465,-117.1599285,92055,San Diego County
471,Ryan Park,33.15050729999999,-117.0284036,92027,San Diego County
474,Old Tractor,33.11158839999999,-116.9755769,92027,San Diego County
479,Black Hawk View Point,33.1510305,-117.0212951,92027,San Diego County
482,Timken Park,33.15367909999999,-117.028922,92027,San Diego County
483,Fitness Court at Mountain View Park,33.12872490000001,-117.0355261,92027,San Diego County
484,Mountain View Park,33.1284742,-117.035641,92027,San Diego County
485,Ingold Sports Park,33.3476635,-117.2479954,92028,San Diego County
486,Dinwiddie Preserve,33.3556651,-117.2321042,92028,San Diego County
487,Palomares House and Park,33.35812419999999,-117.2299998,92028,San Diego County
488,Santa Margarita Preserve,33.4016492,-117.2514166,92028,San Diego County
489,Clemmens Lane County Park,33.3688894,-117.2543613,92028,San Diego County
491,Sweetbriar Gardens,33.3463629,-117.210155,92028,San Diego County
492,Los Jilgueros Preserve,33.3537607,-117.2452971,92028,San Diego County
493,Live Oak County Park,33.3630333,-117.2036514,92028,San Diego County
494,Fallbrook Community Center and Park,33.3776312,-117.2359138,92028,San Diego County
495,Rabbit Park,33.3848167,-117.2263795,92028,San Diego County
496,Veterans Park,33.3853191,-117.2245342,92028,San Diego County
497,Pittenger Park,33.3864408,-117.222988,92028,San Diego County
498,Tom McGuinness Memorial Park,33.3854676,-117.2200948,92028,San Diego County
499,Finch Frolic Garden,33.3788069,-117.222024,92028,San Diego County
500,Village Square Park,33.3819555,-117.2512097,92028,San Diego County
501,Vince Ross Village Square,33.3820194,-117.2512802,92028,San Diego County
502,Jackie Heyneman Park,33.3780661,-117.2532539,92028,San Diego County
503,Fallbrook Riders Field,33.3583931,-117.2296089,92028,San Diego County
504,Fallbrook Dog Park,33.3614425,-117.2042245,92028,San Diego County
505,Elfin Forest Recreational Reserve,33.0865796,-117.1450871,92029,San Diego County
506,Felicita County Park,33.0824053,-117.084248,92029,San Diego County
507,Del Dios Highlands Preserve,33.08384299999999,-117.1187826,92029,San Diego County
508,4th of July Park,33.1027721,-117.1327007,92029,San Diego County
509,Lake Hodges Water Recreation Area,33.0671389,-117.1193379,92029,San Diego County
510,Del Dios Community Park,33.0779741,-117.1161617,92029,San Diego County
511,Questhaven Retreat,33.0893051,-117.1639346,92078,San Diego County
512,Recreation Brands of Southern California,33.1157801,-117.1119978,92029,San Diego County
513,Del Dios Highlands Preserve,33.0837424,-117.1189795,92029,San Diego County
514,North Shore Lake Hodges Trailhead,33.0627913,-117.1198204,92029,San Diego County
515,Del Dios Highlands Preserve Trailhead,33.0848847,-117.1202267,92029,San Diego County
516,Harmony Grove Overlook,33.0833863,-117.1401569,92029,San Diego County
517,Ridgetop Picnic Area,33.0790572,-117.1379649,92029,San Diego County
518,Lake Hodges Hike,33.0779494,-117.1165488,92029,San Diego County
519,Way up trailhead,33.0863158,-117.1449614,92029,San Diego County
520,Lake Hodges overlook parking,33.08647,-117.14526,92029,San Diego County
521,Recreational Reserve Trailhead,33.0865259,-117.1452751,92029,San Diego County
522,Harmony Grove Community Park,33.0993602,-117.1338188,92029,San Diego County
523,web shopping,33.08676800000001,-117.109719,92029,San Diego County
524,Garden Girls,33.1126966,-117.1249299,92029,San Diego County
532,Mt. Soledad National Veterans Memorial,32.8398148,-117.2446699,2037,San Diego County
533,San Diego - La Jolla Underwater Park,32.8529349,-117.262017,2037,San Diego County
534,Allen Field,32.8677558,-117.2431372,92037,San Diego County
535,La Jolla Shores Park,32.8581537,-117.2561029,92037,San Diego County
536,Kellogg Park,32.855757,-117.2577573,92037,San Diego County
538,Roger's Community Garden,32.87206429999999,-117.239455,92093,San Diego County
539,Villa La Jolla Park,32.8574677,-117.2346268,92037,San Diego County
540,Cliffridge Park,32.8574073,-117.2444632,2037,San Diego County
541,La Jolla Natural Park,32.8435276,-117.2614763,92037,San Diego County
542,LA JOLLA COVE,32.8517712,-117.2478162,92037,San Diego County
543,Public Beach Access!,32.8519854,-117.2607938,92037,San Diego County
545,Hillside walking trail,32.84240179999999,-117.253991,92037,San Diego County
546,Muirlands Pump Station,32.8419339,-117.2633283,92037,San Diego County
548,Union Place Circle,32.8460929,-117.2700916,92037,San Diego County
549,Scripps Coastal Meander Trailhead,32.8707582,-117.2515905,92037,San Diego County
552,El Monte County Park,32.8911684,-116.8478604,92040,San Diego County
554,El Capitan Preserve,32.9120427,-116.8774837,92065,San Diego County
559,El Cajon Mountain / El Capitan Preserve Hike Start,32.9139244,-116.884643,92040,San Diego County
560,El Cajon Mt Trailhead,32.91209059999999,-116.8774875,92065,San Diego County
561,Louis Stelzer County Park,32.8811317,-116.8955863,92040,San Diego County
562,Wooten Loop Observation Deck,32.8806722,-116.901863,92040,San Diego County
563,Stelzer Summit,32.8783586,-116.8971127,92040,San Diego County
565,Kumeyaay Promontory,32.8775272,-116.9035515,92040,San Diego County
566,"San Diego River Park Trail, El Monte Valley",32.8705486,-116.8895175,92040,San Diego County
567,Endangered Habitat Conservancy: Hanson El Monte Pond,32.868854,-116.8992816,92040,San Diego County
568,Historic Flume Trailhead,32.8669314,-116.8939559,92040,San Diego County
569,Ron Smith Memorial RC Park,32.86973680000001,-116.9123589,92040,San Diego County
570,Paradise by the Sea Beach RV Resort,33.179567,-117.366309,92054,San Diego County
571,Holiday Park,33.1602063,-117.3397955,92008,San Diego County
572,Eternal Hills Mortuary & Crematory at Eternal Hills Memorial Park,33.1932537,-117.3290063,92054,San Diego County
574,Buccaneer Park,33.1772222,-117.3680556,92054,San Diego County
575,Oceanside RV Resort,33.1812198,-117.3671452,92054,San Diego County
576,Pine Avenue Park,33.1574105,-117.3419992,92008,San Diego County
577,Joseph Carrasco Park,33.1974408,-117.3419776,92054,San Diego County
578,El Corazon Park,33.205979,-117.3149017,90257,San Diego County
579,Carlsbad Parks & Recreation,33.1589396,-117.343426,92008,San Diego County
580,Ann D. L'Heureux Memorial Dog Park,33.171399,-117.3155398,92010,San Diego County
581,Buddy Todd Park,33.2073947,-117.3477044,92054,San Diego County
582,HomeandGardenByDesign,33.23236200000001,-117.337007,92058,San Diego County
583,Hosp Grove Park,33.1769098,-117.3411727,92008,San Diego County
584,Joe Balderrama Park & Recreation Center,33.2040349,-117.3713792,92054,San Diego County
585,Hidden Canyon Community Park,33.1735049,-117.3153011,92010,San Diego County
586,Magee Park,33.1611838,-117.3538435,92008,San Diego County
587,Carlsbad Trailer Plaza,33.163582,-117.351795,92008,San Diego County
588,Wavehuggers,33.1912549,-117.3812362,92054,San Diego County
589,Maxton Brown Park,33.1653747,-117.3532927,92008,San Diego County
590,Eternal Hills Mortuary & Crematory at Eternal Hills Memorial Park,33.1932537,-117.3290063,92054,San Diego County
591,Calavera Hills Community Park,33.166044,-117.299201,92010,San Diego County
592,Guajome Regional Park,33.2423588,-117.2694946,92057,San Diego County
593,Rancho Guajome Adobe,33.2334944,-117.2537299,92083,San Diego County
594,El Corazon Park,33.205979,-117.3149017,90257,San Diego County
595,Calavera Lake,33.1708991,-117.2842292,92010,San Diego County
596,Lake Calaveras Hiking Trail,33.1692003,-117.2851578,92010,San Diego County
597,Ann D. L'Heureux Memorial Dog Park,33.171399,-117.3155398,92010,San Diego County
598,Vista Sports Park,33.2264786,-117.2582972,92083,San Diego County
599,Martin Luther King Junior Park,33.21665489999999,-117.3048318,92056,San Diego County
600,Hidden Canyon Community Park,33.1735049,-117.3153011,92010,San Diego County
601,Joseph Carrasco Park,33.1974408,-117.3419776,92054,San Diego County
602,Oak Riparian Park,33.1767074,-117.2699998,92056,San Diego County
603,Ontario Orchids Inc,33.1864776,-117.2659961,92081,San Diego County
604,Luz Duran Park,33.2128337,-117.2415235,92083,San Diego County
605,Lake Park,33.17379589999999,-117.2554866,92081,San Diego County
606,Breeze Hill Park,33.186199,-117.254568,92083,San Diego County
607,The John Landes Skatepark,33.1954706,-117.2861954,92056,San Diego County
608,Joe Sepulveda Park,33.197168,-117.2961257,92056,San Diego County
609,Bub Williamson Park,33.1982294,-117.2759159,92056,San Diego County
610,Mance Buchanon Park,33.2493516,-117.2975346,92057,San Diego County
611,Guajome Regional Park,33.2423588,-117.2694946,92057,San Diego County
612,Rancho Guajome Adobe,33.2334944,-117.2537299,92083,San Diego County
613,Melba Bishop Pickleball Courts,33.2565097,-117.2921102,92057,San Diego County
614,Libby Lake Park,33.2501578,-117.3086984,92057,San Diego County
615,Luiseño Park,33.2724142,-117.2977021,92057,San Diego County
616,Garden and Gift Shop,33.2552038,-117.3138697,92057,San Diego County
617,Vista Sports Park,33.2264786,-117.2582972,92083,San Diego County
618,Fire Garden Metal Work,33.268074,-117.243687,92003,San Diego County
619,Melba Bishop Recreation Center,33.2565079,-117.2919235,92057,San Diego County
620,Anstine-Audubon Nature Preserve,33.23952,-117.2404611,92084,San Diego County
621,Whelan Lake Bird Sanctuary,33.2422207,-117.3365585,90257,San Diego County
622,The Fire Garden,33.2681715,-117.243714,92003,San Diego County
623,Martin Luther King Junior Park,33.21665489999999,-117.3048318,92056,San Diego County
624,Shepherd of the Valley Lutheran Church,33.2457101,-117.3164899,90257,San Diego County
625,Alamosa Park,33.2379483,-117.2802792,92057,San Diego County
626,San Luis Rey River Trail - Easternmost Access Point,33.2465115,-117.2818593,92057,San Diego County
627,Guajome Regional Park campground,33.2453409,-117.2730313,92057,San Diego County
628,Summit Trail Trailhead,33.2457192,-117.2709812,92057,San Diego County
629,Nature Trail Trailhead,33.2436887,-117.2722517,92057,San Diego County
630,Garden and Gift Shop,33.2552038,-117.3138697,92057,San Diego County
631,Luiseño Park,33.2724142,-117.2977021,92057,San Diego County
632,Whelan Lake Bird Sanctuary,33.2422207,-117.3365585,90257,San Diego County
633,Libby Lake Park,33.2501578,-117.3086984,92057,San Diego County
635,Pilgrim Creek Ecological Reserve,33.2658978,-117.3085136,92057,San Diego County
636,SLR Dog Park,33.288808,-117.3022538,92057,San Diego County
639,Shepherd of the Valley Lutheran Church,33.2457101,-117.3164899,90257,San Diego County
641,Old Poway Park,32.9704755,-117.0373275,92064,San Diego County
642,Iron Mountain Trailhead,32.9783694,-116.9725802,92064,San Diego County
643,Community Park,32.9535165,-117.0479914,92064,San Diego County
644,Poway Dog Park,32.9517403,-117.0488916,92064,San Diego County
645,Blue Sky Ecological Reserve,33.0177768,-117.0229087,92064,San Diego County
646,The Barn Redefined,32.9687592,-117.0357789,92064,San Diego County
647,Mount Woodson Trailhead,33.00645780000001,-117.0133132,92064,San Diego County
648,Lake Poway Recreation Office,33.00686549999999,-117.0139449,92064,San Diego County
649,Backyard Produce Garden,32.9944075,-117.0528364,92128,San Diego County
650,Hilleary Park,32.961315,-117.041519,92064,San Diego County
651,Silverset Neighborhood Park,32.9807602,-117.0496347,92064,San Diego County
652,Gazebo,32.9699221,-117.0369974,92064,San Diego County
653,Starridge Park,32.9645624,-117.0524043,92064,San Diego County
654,Poway Midland Railroad Train Depot,32.96957,-117.0365534,92064,San Diego County
655,Aubrey Park,32.9725219,-117.0372962,92064,San Diego County
656,Tooth Rock,32.9794931,-117.0115814,92064,San Diego County
657,Ponderosa Garden Adventures,32.974283,-117.037871,92064,San Diego County
658,Veterans Park,32.9703593,-117.035733,92064,San Diego County
659,Old Poway Park Fountain,32.9699062,-117.0365499,92064,San Diego County
660,Fountain,32.9699229,-117.0368267,92064,San Diego County
661,Casa Rustica,33.04768790000001,-116.8577286,92065,San Diego County
662,Ramona Oaks RV Park,33.0733233,-116.8038939,92065,San Diego County
663,Wellfield Park,33.0532893,-116.8587157,92065,San Diego County
664,Collier County Park,33.0424248,-116.8610691,92065,San Diego County
665,Ramona Adult Softball Fields,33.0573852,-116.8595177,92065,San Diego County
666,Ramona Community Garden,33.03384599999999,-116.865405,92065,San Diego County
667,DS Garden Shop,33.0394326,-116.8704547,92065,San Diego County
668,Reilly Ranch,33.03612079999999,-116.8157544,92065,San Diego County
669,Santa Maria Creek Staging Area,33.0400798,-116.8823235,92065,San Diego County
670,Simon Park Preserve access point,33.0216265,-116.8189654,92065,San Diego County
671,Simon County Preserve,33.01721819999999,-116.8232344,92065,San Diego County
672,Collier Park,33.0426025,-116.8612176,92065,San Diego County
674,San Diego Polo Fields,32.9851603,-117.2171526,92014,San Diego County
675,Arroyo Preserve,33.02504049999999,-117.1814489,92067,San Diego County
676,Lusardi Creek County Preserve,33.01386,-117.1603015,92067,San Diego County
677,Richardson Field,33.021084,-117.2288715,92067,San Diego County
678,San Dieguito Trail Head,33.0043629,-117.1636201,92127,San Diego County
679,Mt. Evis,33.00843700000001,-117.160677,92067,San Diego County
680,Rancho Santa Fe Field,33.0175387,-117.2304136,92067,San Diego County
681,San Dieguito River Park - Santa Fe Valley Trail,33.0412432,-117.1574994,92067,San Diego County
682,Del Sur Ranch House,33.0130846,-117.1456635,92127,San Diego County
683,Butterfly Garden,33.0024748,-117.2354797,92075,San Diego County
684,Hawk's Nest,32.9993626,-117.2339722,92014,San Diego County
685,La Orilla Trailhead,33.00970240000001,-117.2396992,92075,San Diego County
686,Verrazano South Park,32.98816009999999,-117.1615931,92127,San Diego County
687,Osuna Overlook,32.9970843,-117.2328125,92091,San Diego County
688,Wedding Gazebo,33.0014334,-117.2360296,92075,San Diego County
689,Spreckels Park,33.0143357,-117.1418249,92127,San Diego County
690,Del Sur Neighborhood Park,33.01610739999999,-117.1412703,92127,San Diego County
691,Auberge Dog Park,33.0067467,-117.1436082,92127,San Diego County
693,Walnut Grove Park,33.181729,-117.1529302,92055,San Diego County
694,Hollandia Park,33.1471074,-117.1447585,92069,San Diego County
695,Feng Shui Import,33.1391623,-117.156576,92069,San Diego County
696,Mulberry Park,33.1520641,-117.1489019,92069,San Diego County
697,Palomar College Baseball Field,33.1539579,-117.1808571,92069,San Diego County
698,Las Posas Park Pool,33.1597925,-117.1874714,92069,San Diego County
699,Richmar Park,33.14443180000001,-117.1640088,92069,San Diego County
700,Buelow Park,33.1435489,-117.16791,92096,San Diego County
701,Edwin and Frances Hunter Arboretum,33.1492489,-117.1801521,92069,San Diego County
702,Woodland Park,33.1494771,-117.1323108,96069,San Diego County
703,Friends of San Marcos,33.1407168,-117.1596167,92096,San Diego County
704,Connors Park,33.1403285,-117.1693448,92069,San Diego County
705,Woodland Park Pool,33.14968999999999,-117.1315933,96069,San Diego County
706,Buena Creek Gardens,33.1841955,-117.1634457,92055,San Diego County
707,Nualgi Lakes,33.1415217,-117.1624578,92096,San Diego County
708,Mission Sports Park,33.1451768,-117.1806852,92969,San Diego County
709,WALNUT GROVE PARK,33.1806297,-117.1554165,92069,San Diego County
710,South Shelter,33.181729,-117.1529303,92055,San Diego County
711,Twin Oaks Valley Ranch Park at Lawnsdale Place,33.1599228,-117.1578313,92069,San Diego County
712,'P' Mountain Summit,33.157714,-117.172678,92969,San Diego County
713,Old Mission Dam,32.8395246,-117.0431602,92120,San Diego County
714,Santee Lakes Campground,32.8460765,-117.0039913,92071,San Diego County
715,Willow Loop Campground,32.8686594,-117.0058625,92071,San Diego County
716,Mulberry Loop Campground,32.8675483,-117.0083626,92071,San Diego County
717,Big Rock Park,32.83041840000001,-117.018256,92119,San Diego County
718,Town Center Community Park,32.8490983,-116.9780572,92071,San Diego County
719,Santee Skatepark,32.8669946,-116.9743101,92071,San Diego County
720,East Fortuna Staging Area,32.846625,-117.029836,92071,San Diego County
721,Kumeyaay Lake Campground,32.839824,-117.0335625,92119,San Diego County
722,Lakeside National Little League,32.8549906,-116.9524656,92071,San Diego County
723,Sky Ranch Park,32.8343067,-116.9533389,92071,San Diego County
724,Rattlesnake Mountain Preserve,32.8355884,-116.9505143,92071,San Diego County
725,West Hills Park,32.84649100000001,-117.0214855,92071,San Diego County
726,Shadow Hill Park,32.8414445,-116.9547028,92022,San Diego County
727,Mast Park + Disc Golf Course,32.84540369999999,-116.9939664,92071,San Diego County
728,Woodglen Vista Park,32.86687939999999,-116.9745723,92071,San Diego County
729,Santee Dog Park,32.8449437,-116.9940607,92071,San Diego County
730,San Diego River Trail- Carlton Hills Blvd Trailhead,32.8448189,-116.998386,92071,San Diego County
731,Veterans Memorial Monument,32.85004840000001,-117.0046567,92071,San Diego County
732,Under the bridge bike path,32.8369174,-116.9949389,92071,San Diego County
733,Del Mar Fairgrounds,32.97361540000001,-117.2565588,92014,San Diego County
736,Powerhouse Park & Beach,32.96077760000001,-117.2680718,92014,San Diego County
737,Fletcher Cove Beach Park,32.99137619999999,-117.2732595,92075,San Diego County
738,Seagrove Park,32.9590582,-117.2674355,92014,San Diego County
739,Annie's Canyon Trail,33.0000382,-117.2582537,92075,San Diego County
740,San Elijo Lagoon Nature Center,33.0133595,-117.2742433,92007,San Diego County
741,San Dieguito River Park,32.9780341,-117.2474932,92014,San Diego County
742,San Diego Polo Fields,32.9851603,-117.2171526,92014,San Diego County
743,Crest Canyon Park,32.9573375,-117.2530392,92014,San Diego County
744,Encinitas Community Park,33.0324759,-117.2807797,92007,San Diego County
745,Encinitas Dog Park,33.0319465,-117.2831796,92007,San Diego County
746,Free Flight,32.970057,-117.264117,92014,San Diego County
747,San Elijo Lagoon Ecological Reserve and Nature Center,33.0157934,-117.2503046,92067,San Diego County
748,Friends of Del Mar Parks,32.9564499,-117.2638226,92014,San Diego County
749,La Colonia Park & Skatepark,32.9866238,-117.25947,92075,San Diego County
750,Annie’s Slot Canyon Lookout,33.0048377,-117.2634077,92075,San Diego County
751,Santa Inez Trail,33.0080646,-117.2597895,92075,San Diego County
752,Santa Carina Trail,33.0075543,-117.2518591,92075,San Diego County
753,Sunset Park,33.1451543,-117.2108698,92078,San Diego County
754,Bradley Park,33.1379869,-117.2018424,92078,San Diego County
755,San Elijo Park,33.10109449999999,-117.1993528,92078,San Diego County
756,Discovery Lake,33.1236642,-117.1788312,92096,San Diego County
757,Feng Shui Import,33.1391623,-117.156576,92069,San Diego County
758,Lakeview Park,33.12444240000001,-117.1786798,92096,San Diego County
759,Buelow Park,33.1435489,-117.16791,92096,San Diego County
760,Connors Park,33.1403285,-117.1693448,92069,San Diego County
761,Swiss Gardens,33.1301087,-117.1520456,92096,San Diego County
762,Friends of San Marcos,33.1407168,-117.1596167,92096,San Diego County
763,Edwin and Frances Hunter Arboretum,33.1492489,-117.1801521,92069,San Diego County
764,Richmar Park,33.14443180000001,-117.1640088,92069,San Diego County
765,Palomar College Baseball Field,33.1539579,-117.1808571,92069,San Diego County
766,Hollandia Park,33.1471074,-117.1447585,92069,San Diego County
767,Mrgarden.net,33.13669730000001,-117.2268704,92078,San Diego County
768,Questhaven Retreat,33.0893051,-117.1639346,92078,San Diego County
769,Las Posas Park Pool,33.1597925,-117.1874714,92069,San Diego County
770,Nualgi Lakes,33.1415217,-117.1624578,92096,San Diego County
771,Recreation Republic,33.104624,-117.218715,92009,San Diego County
772,Rancho Vallecitos Mobile Home Park,33.139206,-117.211027,92069,San Diego County
773,Sunset Park,33.1451543,-117.2108698,92078,San Diego County
774,Dawson Los Monos Cyn Reserve,33.1484723,-117.2480867,92081,San Diego County
775,Buena Vista Park,33.1577789,-117.2463566,92081,San Diego County
776,Bradley Park,33.1379869,-117.2018424,92078,San Diego County
777,Dawson Los Monos Canyon Reserve,33.14768400000001,-117.2525927,92081,San Diego County
778,Mrgarden.net,33.13669730000001,-117.2268704,92078,San Diego County
779,Calavera Lake,33.1708991,-117.2842292,92010,San Diego County
780,Lake Calaveras Hiking Trail,33.1692003,-117.2851578,92010,San Diego County
781,Lake Park,33.17379589999999,-117.2554866,92081,San Diego County
782,Rancho Vallecitos Mobile Home Park,33.139206,-117.211027,92069,San Diego County
783,South Buena Vista Park,33.1486286,-117.2432993,92081,San Diego County
784,Oak Riparian Park,33.1767074,-117.2699998,92056,San Diego County
785,Las Posas Park Pool,33.1597925,-117.1874714,92069,San Diego County
786,Ontario Orchids Inc,33.1864776,-117.2659961,92081,San Diego County
787,Breeze Hill Park,33.186199,-117.254568,92083,San Diego County
788,Shadowridge Park,33.1620807,-117.2259057,92081,San Diego County
789,crystal ridge park,33.164402,-117.2502735,92081,San Diego County
790,Buena Vista Park Loop Trailhead,33.1566772,-117.2467995,92081,San Diego County
791,Thibodo Park & Ranch House,33.17158420000001,-117.2290294,92081,San Diego County
792,Lau Hala Pond,33.175932,-117.254867,92081,San Diego County
793,Valley Center Parks & Rec,33.2370678,-117.0234025,92082,San Diego County
794,Robert Adams Community Park,33.2372209,-117.0221447,92082,San Diego County
795,Nurtured By Nature,33.281398,-116.988451,92082,San Diego County
796,Valley Center Parks,33.2202128,-117.0384779,92082,San Diego County
797,Valley Center Community Church Park,33.240342,-117.024526,92082,San Diego County
799,Star Valley Park,33.2311373,-117.008127,92082,San Diego County
800,The Cactus Plants,33.23066250000001,-117.0256634,92082,San Diego County
801,Woods Valley Campgrounds,33.2084336,-116.9988521,92082,San Diego County
802,Crows Nest Bike Park,33.2329582,-117.0201916,92082,San Diego County
803,Alta Vista Botanical Gardens,33.210362,-117.219357,92084,San Diego County
804,Rancho Guajome Adobe,33.2334944,-117.2537299,92083,San Diego County
805,Buena Vista Park,33.1577789,-117.2463566,92081,San Diego County
806,Brengle Terrace Park,33.2096444,-117.221058,92084,San Diego County
807,Vista Sports Park,33.2264786,-117.2582972,92083,San Diego County
808,Calavera Lake,33.1708991,-117.2842292,92010,San Diego County
809,Luz Duran Park,33.2128337,-117.2415235,92083,San Diego County
810,Anstine-Audubon Nature Preserve,33.23952,-117.2404611,92084,San Diego County
811,Lake Calaveras Hiking Trail,33.1692003,-117.2851578,92010,San Diego County
812,Lake Park,33.17379589999999,-117.2554866,92081,San Diego County
813,Oak Riparian Park,33.1767074,-117.2699998,92056,San Diego County
814,Ontario Orchids Inc,33.1864776,-117.2659961,92081,San Diego County
815,Wildwood Park,33.20582540000001,-117.2361859,92084,San Diego County
816,Breeze Hill Park,33.186199,-117.254568,92083,San Diego County
817,Civic Center Park,33.2032214,-117.234226,92083,San Diego County
818,Vista Village Gazebo,33.202455,-117.2416363,92084,San Diego County
819,Vista Memorial Flagpole,33.2025021,-117.2397359,92083,San Diego County
820,Pala Vista Park,33.191236,-117.236128,92083,San Diego County
821,Vista Conservancy Nature Trail,33.2056219,-117.2356187,92084,San Diego County
822,"City of Vista ""Conservancy"" Trail",33.20887280000001,-117.2339106,92084,San Diego County
823,Alta Vista Botanical Gardens,33.210362,-117.219357,92084,San Diego County
824,Brengle Terrace Park,33.2096444,-117.221058,92084,San Diego County
825,Rancho Guajome Adobe,33.2334944,-117.2537299,92083,San Diego County
826,Anstine-Audubon Nature Preserve,33.23952,-117.2404611,92084,San Diego County
827,Luz Duran Park,33.2128337,-117.2415235,92083,San Diego County
828,Wildwood Park,33.20582540000001,-117.2361859,92084,San Diego County
829,Civic Center Park,33.2032214,-117.234226,92083,San Diego County
830,Park,33.21128950000001,-117.2236017,92084,San Diego County
831,Park Vale Terrace,33.2101139,-117.2243766,92084,San Diego County
832,Nursery’s in California,33.2378227,-117.2263312,92084,San Diego County
833,Vista Conservancy Nature Trail North End,33.2087652,-117.2265549,92084,San Diego County
834,Mission Ranch,33.25290270000001,-117.2018486,92084,San Diego County
835,"City of Vista ""Conservancy"" Trail",33.20887280000001,-117.2339106,92084,San Diego County
836,Raintree Park,33.2119564,-117.2381269,92084,San Diego County
837,Vista Conservancy Nature Trail,33.2056219,-117.2356187,92084,San Diego County
838,Merriam Mountains boulders,33.2282465,-117.1599285,92055,San Diego County
839,Vista Memorial Flagpole,33.2025021,-117.2397359,92083,San Diego County
840,Vista Village Gazebo,33.202455,-117.2416363,92084,San Diego County
841,Pala Vista Park,33.191236,-117.236128,92083,San Diego County
842,Veterans Memorial Park,33.2004057,-117.2429015,92083,San Diego County
843,Balboa Park,32.7341479,-117.144553,92101,San Diego County
845,Sunset Park,32.6882099,-117.1918533,92118,San Diego County
846,Embarcadero Marina Park South,32.70386540000001,-117.1643418,92101,San Diego County
847,Liberty Station NTC Park,32.734668,-117.2131512,92110,San Diego County
848,Coronado Community Center,32.67672329999999,-117.1712663,92118,San Diego County
849,Japanese Friendship Garden,32.730148,-117.1499785,92101,San Diego County
850,Coronado Beach & Dog Park,32.68657,-117.193616,92118,San Diego County
851,Centennial Park,32.6993653,-117.1719467,92118,San Diego County
852,Morley Field Dog Park,32.7389877,-117.1424321,92163,San Diego County
853,Presidio Park,32.7581942,-117.1908458,92103,San Diego County
854,Harbor Island Park,32.7251045,-117.2061996,92147,San Diego County
856,Polar Bear Plunge,32.73444239999999,-117.154574,92101,San Diego County
858,Balboa Park Boulevard and Presidents Way Lawn,32.72527670000001,-117.1516591,92134,San Diego County
859,Balboa Park Visitors Center,32.7311958,-117.1499551,92134,San Diego County
860,Old Town San Diego Boosters,32.7520961,-117.1943928,92110,San Diego County
861,Botanical Building,32.7324886,-117.1492088,92134,San Diego County
862,City of San Diego Work Comp,32.718141,-117.1623659,92101,San Diego County
863,"Cypress View Mausoleum, Mortuary and Crematory",32.7037951,-117.1089183,92113,San Diego County
864,Dennis V Allen Park,32.7139519,-117.1119518,92102,San Diego County
865,Mt Hope Community Garden,32.711227,-117.103466,92102,San Diego County
866,Community Space,32.7062333,-117.1329432,92113,San Diego County
867,Grape Street Off-Leash Area,32.7265781,-117.1345114,92134,San Diego County
868,Switzer Canyon - East,32.73404049999999,-117.1279076,92104,San Diego County
869,Switzer Canyon,32.7331156,-117.1296914,92104,San Diego County
870,Juniper Canyon,32.7271624,-117.1212364,92104,San Diego County
871,Grant Hill Neighborhood Park,32.7096715,-117.1373215,92102,San Diego County
872,32nd Street Canyon,32.7185314,-117.1246571,92102,San Diego County
873,Cedar Ridge Mini Park,32.7227498,-117.1184974,92104,San Diego County
874,32nd Street Open Space,32.7195101,-117.12527,92102,San Diego County
875,J Street Mini Park,32.70982370000001,-117.1227799,92102,San Diego County
876,Cedar Ridge Park Canyon,32.7242932,-117.1157729,92102,San Diego County
877,Island Ave Mini Park,32.71080999999999,-117.1295514,92102,San Diego County
878,Einstein Peace Garden,32.7191703,-117.1311708,92102,San Diego County
879,Ivy Canyon,32.7275245,-117.1242299,92104,San Diego County
880,Golden Hill Park,32.7204636,-117.1403664,92102,San Diego County
881,Clay Ave Mini Park,32.7030234,-117.1261068,92113,San Diego County
882,28th Street Playground,32.722301,-117.1339549,92134,San Diego County
883,Morley Field Dog Park,32.7389877,-117.1424321,92163,San Diego County
884,Presidio Park,32.7581942,-117.1908458,92103,San Diego County
885,Polar Bear Plunge,32.73444239999999,-117.154574,92101,San Diego County
886,GardenBoxGuru,32.74327759999999,-117.1796582,92103,San Diego County
887,Harper's Topiary Garden,32.7411649,-117.1759697,92103,San Diego County
888,Cabrillo Canyon,32.7407512,-117.1561382,92163,San Diego County
889,Balboa Park Visitors Center,32.7311958,-117.1499551,92134,San Diego County
890,Secretary Bird Enclosure,32.7378176,-117.153229,92101,San Diego County
891,Botanical Building,32.7324886,-117.1492088,92134,San Diego County
892,Parker Aviary,32.735172,-117.1510617,92101,San Diego County
894,Heritage County Park,32.75323000000001,-117.1917515,92103,San Diego County
895,Lily Pond,32.7316164,-117.1492103,92134,San Diego County
896,Pioneer Park,32.749058,-117.1775418,92103,San Diego County
897,Moreton Bay Fig Lawn,32.732837,-117.1472476,92134,San Diego County
898,Founders Circle,32.7310899,-117.1493335,92134,San Diego County
899,Sixth Avenue Playground,32.7392339,-117.1589394,92101,San Diego County
900,Trees for Health Garden,32.7372042,-117.1583825,92101,San Diego County
901,The Potted Poppy,32.749789,-117.1676501,92103,San Diego County
902,West Lewis Street Pocket Park,32.75185829999999,-117.1706167,92103,San Diego County
903,Balboa Park,32.7341479,-117.144553,92101,San Diego County
904,Morley Field Dog Park,32.7389877,-117.1424321,92163,San Diego County
905,Japanese Friendship Garden,32.730148,-117.1499785,92101,San Diego County
906,Botanical Building,32.7324886,-117.1492088,92134,San Diego County
907,Balboa Park Visitors Center,32.7311958,-117.1499551,92134,San Diego County
908,Switzer Canyon - East,32.73404049999999,-117.1279076,92104,San Diego County
909,Grape Street Off-Leash Area,32.7265781,-117.1345114,92134,San Diego County
910,Moreton Bay Fig Lawn,32.732837,-117.1472476,92134,San Diego County
911,Parker Aviary,32.735172,-117.1510617,92101,San Diego County
912,Lily Pond,32.7316164,-117.1492103,92134,San Diego County
913,North Park Community Park,32.7525892,-117.1345193,92104,San Diego County
914,Founders Circle,32.7310899,-117.1493335,92134,San Diego County
915,Switzer Canyon,32.7331156,-117.1296914,92104,San Diego County
916,Secretary Bird Enclosure,32.7378176,-117.153229,92101,San Diego County
917,Park de la Cruz,32.7446398,-117.110952,92105,San Diego County
918,Inez Grant Parker Memorial Rose Garden,32.7315254,-117.1457443,92134,San Diego County
919,Montclair Neighborhood Park,32.7350992,-117.1159626,92104,San Diego County
920,Juniper Canyon,32.7271624,-117.1212364,92104,San Diego County
921,Bea Evenson Fountain,32.7314607,-117.1468011,92134,San Diego County
922,Altadena Community Pocket Garden,32.7389925,-117.1248716,92104,San Diego County
923,Colina Del Sol Park,32.75148489999999,-117.0805115,92105,San Diego County
924,Menlo Mini Park,32.7369028,-117.0951796,92105,San Diego County
925,Park de la Cruz,32.7446398,-117.110952,92105,San Diego County
926,Manzanita Canyon,32.7360058,-117.1077233,92105,San Diego County
927,Charles Lewis III Memorial Park,32.7346123,-117.0932229,92105,San Diego County
928,Chollas Creek Canyon,32.73546840000001,-117.0879467,92105,San Diego County
929,Olivia Canyon,32.7415923,-117.0936352,92105,San Diego County
930,Oak Park,32.7331739,-117.083104,92105,San Diego County
931,The Manzanita Gathering Place,32.7401325,-117.1019467,92105,San Diego County
932,Hollywood Canyon,32.7335613,-117.102494,92105,San Diego County
933,Pepper Canyon,32.735932,-117.1039031,92105,San Diego County
934,Hollywood Park Canyon Trail,32.73582830000001,-117.1039199,92105,San Diego County
935,Highland and Landis Park,32.7465527,-117.0988982,92105,San Diego County
936,Wightman Street Neighborhood Park,32.747802,-117.085846,92105,San Diego County
937,beauty by martha,32.7290208,-117.1014419,92105,San Diego County
938,Officer Jeremy Henwood Memorial Park,32.7472303,-117.1007638,92105,San Diego County
939,Hollywood Neighborhood Park,32.7307758,-117.1041322,92105,San Diego County
940,Shamrock Canyon,32.7308633,-117.1053965,92105,San Diego County
941,City Heights Community Garden,32.7479144,-117.1022104,92105,San Diego County
942,Azalea Park Water Conservation Garden,32.7326631,-117.1070688,92105,San Diego County
944,Liberty Station NTC Park,32.734668,-117.2131512,92110,San Diego County
945,Bill Cleator Community Park,32.7470816,-117.2332675,92107,San Diego County
946,Harbor Island Park,32.7251045,-117.2061996,92147,San Diego County
947,Dusty Rhodes Park,32.75237509999999,-117.2385678,92017,San Diego County
948,Robb Field,32.754352,-117.2414578,92017,San Diego County
949,Coronado Beach & Dog Park,32.68657,-117.193616,92118,San Diego County
950,Ocean Beach Athletic Area Robb Field,32.7543063,-117.2413488,92017,San Diego County
951,San Diego Firewalk,32.7094288,-117.232364,92106,San Diego County
952,Sunset Cliffs Natural Park,32.718002,-117.2548558,92106,San Diego County
953,Point Loma Garden,32.7344903,-117.2146468,92110,San Diego County
954,ARTS DISTRICT Liberty Station,32.7373632,-117.2140079,92147,San Diego County
955,Spanish Landing Park - West,32.7289029,-117.2037783,92147,San Diego County
956,Kahuna Reef,32.74722069999999,-117.2546667,92017,San Diego County
957,Dog Park,32.7528934,-117.2379747,92017,San Diego County
958,Dusty Rhodes Park,32.7451158,-117.2454559,92107,San Diego County
959,Robb Field Skate Park,32.75593699999999,-117.2359872,92017,San Diego County
962,Point Loma Community Park,32.7249035,-117.2433608,92106,San Diego County
964,Fiesta Island Park,32.7713078,-117.2159781,92110,San Diego County
965,Liberty Station NTC Park,32.734668,-117.2131512,92110,San Diego County
966,Seaworld,32.7641067,-117.2262649,92109,San Diego County
967,Ski Beach Park,32.7769691,-117.2340022,92109,San Diego County
968,Dusty Rhodes Park,32.75237509999999,-117.2385678,92017,San Diego County
969,Bill Cleator Community Park,32.7470816,-117.2332675,92107,San Diego County
970,South Shores Park,32.7629663,-117.2182266,92110,San Diego County
971,Robb Field,32.754352,-117.2414578,92017,San Diego County
972,Mission Point Park,32.7611776,-117.245933,92017,San Diego County
973,Ocean Beach Athletic Area Robb Field,32.7543063,-117.2413488,92017,San Diego County
974,Harbor Island Park,32.7251045,-117.2061996,92147,San Diego County
975,Bonita Cove,32.7708619,-117.2494626,92017,San Diego County
976,Old Town San Diego Boosters,32.7520961,-117.1943928,92110,San Diego County
977,Kahuna Reef,32.74722069999999,-117.2546667,92017,San Diego County
978,Dog Park,32.7528934,-117.2379747,92017,San Diego County
979,Robb Field Skate Park,32.75593699999999,-117.2359872,92017,San Diego County
980,Hospitality Point Park Gazebo,32.7595009,-117.2414957,92109,San Diego County
981,Sunset Cliffs Natural Park,32.718002,-117.2548558,92106,San Diego County
982,Point Loma Garden,32.7344903,-117.2146468,92110,San Diego County
983,Trolley Barn Park,32.7627763,-117.1440195,92116,San Diego County
984,Ruffin Canyon Open Space,32.7913152,-117.131939,92123,San Diego County
985,Prima Cemetery Services,32.7864568,-117.1622051,92111,San Diego County
986,Murray Ridge Park,32.790442,-117.1466431,92123,San Diego County
987,State Parks California,32.7744969,-117.1381944,92108,San Diego County
988,Fountain,32.7744559,-117.1423613,92108,San Diego County
989,San Diego River Center at Grant Park,32.7725174,-117.1384209,92108,San Diego County
990,walking track,32.7731025,-117.1452152,92018,San Diego County
992,Civita Community Garden,32.7786559,-117.147317,92018,San Diego County
993,Park Villas North Picnic and Grill,32.7737789,-117.1498547,92018,San Diego County
994,First United Methodist-MV 20 Palm Canyon,32.7659342,-117.1434312,92108,San Diego County
995,Picnic area,32.7737819,-117.1523009,92108,San Diego County
996,Civita Dog Park,32.78297409999999,-117.1479001,92018,San Diego County
997,Sri Chinmoy Peace Garden,32.7629549,-117.1369919,92116,San Diego County
998,Kenmore Terrace Mini-Park,32.7663757,-117.1271908,92116,San Diego County
999,San Diego River Garden in Mission Valley,32.7769087,-117.1225123,92108,San Diego County
1000,Normal Heights Canyon,32.7732838,-117.1221854,92108,San Diego County
1001,University Heights Point,32.7620983,-117.1546433,92116,San Diego County
1002,North Park Community Park,32.7525892,-117.1345193,92104,San Diego County
1003,Campland on the Bay,32.7960391,-117.2245988,92109,San Diego County
1004,Mission Bay RV Resort,32.7979418,-117.2159179,92140,San Diego County
1005,Fiesta Island Park,32.7713078,-117.2159781,92110,San Diego County
1006,Ski Beach Park,32.7769691,-117.2340022,92109,San Diego County
1007,Bonita Cove,32.7708619,-117.2494626,92017,San Diego County
1008,Tecolote Shores,32.7752149,-117.2096905,92110,San Diego County
1009,De Anza Cove Park,32.7979652,-117.2140135,92140,San Diego County
1010,Crown Point Park,32.7875932,-117.2334387,92109,San Diego County
1011,Pacific Beach Community Park,32.8006971,-117.2445446,92109,San Diego County
1012,Mission Bay Bike Path,32.7721426,-117.2487066,92109,San Diego County
1013,Fanuel Street Park,32.7914391,-117.2443008,92109,San Diego County
1014,Capehart (Soledad) Dog Park,32.8072369,-117.225595,92109,San Diego County
1015,welcome to zatchu punch,32.7895377,-117.2526389,92109,San Diego County
1016,Vacation Isle Park,32.7725083,-117.2375535,92109,San Diego County
1017,Playa Pacifica Park,32.7815184,-117.2110926,92110,San Diego County
1018,Kendall-Frost Mission Bay Marsh Reserve,32.7941303,-117.2291748,92109,San Diego County
1019,Northern Wildlife Preserve,32.7913428,-117.227192,92109,San Diego County
1020,Crown Point Park NORTH,32.78784390000001,-117.2329676,92109,San Diego County
1021,Picnic Tables,32.7882894,-117.2321433,92109,San Diego County
1022,West Ski Island,32.7866601,-117.2275667,92109,San Diego County
1024,Mission Bay RV Resort,32.7979418,-117.2159179,92140,San Diego County
1025,Campland on the Bay,32.7960391,-117.2245988,92109,San Diego County
1026,Fiesta Island Park,32.7713078,-117.2159781,92110,San Diego County
1027,Liberty Station NTC Park,32.734668,-117.2131512,92110,San Diego County
1028,Seaworld,32.7641067,-117.2262649,92109,San Diego County
1029,Presidio Park,32.7581942,-117.1908458,92103,San Diego County
1030,Ski Beach Park,32.7769691,-117.2340022,92109,San Diego County
1031,Tecolote Shores,32.7752149,-117.2096905,92110,San Diego County
1032,South Shores Park,32.7629663,-117.2182266,92110,San Diego County
1033,Bill Cleator Community Park,32.7470816,-117.2332675,92107,San Diego County
1034,Dusty Rhodes Park,32.75237509999999,-117.2385678,92017,San Diego County
1035,Robb Field,32.754352,-117.2414578,92017,San Diego County
1036,Old Town San Diego Boosters,32.7520961,-117.1943928,92110,San Diego County
1037,Ocean Beach Athletic Area Robb Field,32.7543063,-117.2413488,92017,San Diego County
1038,Mission Point Park,32.7611776,-117.245933,92017,San Diego County
1039,Harbor Island Park,32.7251045,-117.2061996,92147,San Diego County
1040,De Anza Cove Park,32.7979652,-117.2140135,92140,San Diego County
1041,Bonita Cove,32.7708619,-117.2494626,92017,San Diego County
1042,Old Town Park,32.7571347,-117.1938527,92110,San Diego County
1043,Mission Bay RV Resort,32.7979418,-117.2159179,92140,San Diego County
1044,Lindbergh Neighborhood Park,32.8188015,-117.1622478,92111,San Diego County
1045,De Anza Cove Park,32.7979652,-117.2140135,92140,San Diego County
1046,TerraMesa Organic Garden,32.8055062,-117.1737884,92111,San Diego County
1047,Kearny Mesa Leash-Free Dog Park,32.7999969,-117.1679463,92111,San Diego County
1048,East Clairemont Athletic Area,32.8038633,-117.1834562,92111,San Diego County
1049,Cabrillo Heights Park,32.8057222,-117.1477317,92123,San Diego County
1050,Prima Cemetery Services,32.7864568,-117.1622051,92111,San Diego County
1051,Tecolote Canyon,32.7842986,-117.1840311,92110,San Diego County
1052,Ruffin Canyon Open Space,32.7913152,-117.131939,92123,San Diego County
1053,South Clairemont Recreation Center,32.8063599,-117.2005014,92140,San Diego County
1054,Kearny Mesa Recreation Center,32.8018721,-117.1651918,92111,San Diego County
1055,Tecolote Canyon Natural Park and Nature Center,32.7955537,-117.1865773,92111,San Diego County
1056,Buffalo Restoration Project,32.8209579,-117.1811588,92117,San Diego County
1057,Olive Grove Park,32.8265079,-117.1706432,92111,San Diego County
1058,Mount Acadia Neighborhood Park,32.81238139999999,-117.1805156,92111,San Diego County
1059,Murray Ridge Park,32.790442,-117.1466431,92123,San Diego County
1060,North Clairemont Recreation Center,32.8323975,-117.1974175,92117,San Diego County
1061,The Village at Serra Mesa Community Area,32.80323029999999,-117.1435712,92123,San Diego County
1062,Linda Vista Community park,32.79194680000001,-117.1702233,92111,San Diego County
1063,"Cypress View Mausoleum, Mortuary and Crematory",32.7037951,-117.1089183,92113,San Diego County
1064,Community Space,32.7062333,-117.1329432,92113,San Diego County
1065,Dennis V Allen Park,32.7139519,-117.1119518,92102,San Diego County
1066,Mt Hope Community Garden,32.711227,-117.103466,92102,San Diego County
1067,Mariner's Park,32.6905221,-117.1250379,92136,San Diego County
1068,Dorothy Petway Park,32.6919631,-117.1184793,92113,San Diego County
1069,Southcrest Trails Neighborhood Park,32.69081459999999,-117.1165716,92113,San Diego County
1070,Memorial Skatepark,32.6981387,-117.1298535,92113,San Diego County
1071,Clay Ave Mini Park,32.7030234,-117.1261068,92113,San Diego County
1072,Memorial Dog Park,32.7006779,-117.1300409,92113,San Diego County
1073,Memorial Park,32.7007326,-117.1305321,92113,San Diego County
1074,Mountain View Park,32.6995584,-117.1063326,92113,San Diego County
1075,41st St Mini Park,32.6895323,-117.1058539,92113,San Diego County
1076,J Street Mini Park,32.70982370000001,-117.1227799,92102,San Diego County
1077,Bainbridge Park,32.6807841,-117.1243468,92136,San Diego County
1078,Island Ave Mini Park,32.71080999999999,-117.1295514,92102,San Diego County
1079,Grant Hill Neighborhood Park,32.7096715,-117.1373215,92102,San Diego County
1080,Chicano Park,32.6996515,-117.1425877,92136,San Diego County
1081,Market Creek Canyon,32.7033889,-117.0987557,92113,San Diego County
1082,Ocean View Growing Grounds,32.7007543,-117.097283,92113,San Diego County
1083,George L. Stevens Senior Center,32.6985093,-117.0587214,92114,San Diego County
1084,Emerald Hills Park,32.7210091,-117.0738919,92114,San Diego County
1085,Officer Christopher Wilson Memorial Park.,32.7044937,-117.0416195,92114,San Diego County
1086,Marie Widman Memorial Park,32.7103891,-117.052967,92114,San Diego County
1087,Encanto Neighborhood Park,32.7153368,-117.0576032,92114,San Diego County
1088,Clubhouse,32.70873330000001,-117.0458683,92114,San Diego County
1089,Martin Luther King jr. Recreation Center & Park,32.69976560000001,-117.0608286,92114,San Diego County
1090,Dog Park,32.7154038,-117.0467751,92114,San Diego County
1091,Upper Radio Canyon Open Space,32.7163938,-117.0635969,92114,San Diego County
1092,Keiller Neighborhood Park,32.71253129999999,-117.0411971,92114,San Diego County
1093,Radio Canyon Open Space,32.7156392,-117.0696611,92114,San Diego County
1094,Boone Neighborhood Park,32.6975585,-117.0376641,92114,San Diego County
1095,Emerald Hills Neighborhood Park,32.7212904,-117.0752706,92114,San Diego County
1096,Paradise Hills Native Garden,32.6866712,-117.0491573,92139,San Diego County
1097,La Paz Mini Park,32.6996937,-117.0806432,92114,San Diego County
1098,Encanto Park,32.7104005,-117.0527444,92114,San Diego County
1099,Monterey Heights Park,32.7245239,-117.033434,91945,San Diego County
1100,Colina Del Sol Park,32.75148489999999,-117.0805115,92105,San Diego County
1101,Campanile Mall,32.7727549,-117.0718786,92182,San Diego County
1102,San Diego Funeral Service,32.754617,-117.059414,92115,San Diego County
1103,SDSU Turtle Pond,32.7759191,-117.0730665,92182,San Diego County
1104,Rolando Park,32.7576645,-117.0530213,92115,San Diego County
1105,Campanile Parkway,32.7714446,-117.0719251,92182,San Diego County
1106,Clay Neighborhood Park,32.762986,-117.0597084,92115,San Diego County
1107,Gopher City Dog Park,32.7527936,-117.0816964,92105,San Diego County
1108,Aztec Center Green,32.77367280000001,-117.0706606,92182,San Diego County
1109,Montezuma Mesa,32.7745523,-117.0719175,92182,San Diego County
1110,Campanile Parkway,32.7745594,-117.07178,92182,San Diego County
1111,College Area Community Garden,32.77364230000001,-117.0654884,92115,San Diego County
1112,Paseo del Colibri,32.7595683,-117.0557668,92112,San Diego County
1113,Campanile Park,32.7756039,-117.0725435,92182,San Diego County
1114,Paseo de la Naranja,32.761192,-117.0551282,92112,San Diego County
1115,Paseo de los Agaves,32.7562939,-117.0562229,92112,San Diego County
1116,Talmadge Square,32.7627767,-117.0887164,92115,San Diego County
1117,Park Gardens,32.752915,-117.0860341,92105,San Diego County
1118,Paseo del Papagayo,32.7616138,-117.054344,92112,San Diego County
1119,Campanile Quad,32.7765642,-117.0718867,92182,San Diego County
1120,Trolley Barn Park,32.7627763,-117.1440195,92116,San Diego County
1121,Ward Canyon Interim Dog Park,32.76128749999999,-117.1096722,92116,San Diego County
1122,North Park Community Park,32.7525892,-117.1345193,92104,San Diego County
1123,Ward Canyon Neighborhood Park,32.7622823,-117.1105831,92116,San Diego County
1124,State Parks California,32.7744969,-117.1381944,92108,San Diego County
1125,Kensington Park,32.7630603,-117.106896,92116,San Diego County
1126,Kenmore Terrace Mini-Park,32.7663757,-117.1271908,92116,San Diego County
1127,Adams Community Park,32.76276039999999,-117.1178245,92116,San Diego County
1128,North Mountain View Mini Park,32.770092,-117.1213479,92116,San Diego County
1129,Normal Heights Canyon,32.7732838,-117.1221854,92108,San Diego County
1130,Normal Heights Open Space Park,32.7686688,-117.1134424,92116,San Diego County
1131,Devils Sandbox Canyon,32.767838,-117.1129419,92116,San Diego County
1132,Sri Chinmoy Peace Garden,32.7629549,-117.1369919,92116,San Diego County
1133,San Diego River Garden in Mission Valley,32.7769087,-117.1225123,92108,San Diego County
1134,North Park Community Dog Park,32.753538,-117.1340207,92104,San Diego County
1135,San Diego River Center at Grant Park,32.7725174,-117.1384209,92108,San Diego County
1136,North Park Community Park Restroom,32.7522795,-117.1345323,92104,San Diego County
1137,Jeff's Garden,32.74805120000001,-117.1195381,92104,San Diego County
1138,First United Methodist-MV 20 Palm Canyon,32.7659342,-117.1434312,92108,San Diego County
1139,North park event,32.7476563,-117.130424,92104,San Diego County
1140,Marian Bear Memorial Park,32.8455197,-117.1995044,92122,San Diego County
1141,South Clairemont Recreation Center,32.8063599,-117.2005014,92140,San Diego County
1142,Buffalo Restoration Project,32.8209579,-117.1811588,92117,San Diego County
1143,North Clairemont Recreation Center,32.8323975,-117.1974175,92117,San Diego County
1144,Mount Acadia Neighborhood Park,32.81238139999999,-117.1805156,92111,San Diego County
1145,Tecolote Canyon | N Clairemont Recreation Center,32.8292397,-117.1968679,92117,San Diego County
1146,Tecolote Canyon North Trailhead,32.8305924,-117.1971248,92117,San Diego County
1147,Tecolote Canyon Hiking Area,32.82886939999999,-117.1935246,92117,San Diego County
1148,North Clairemont Community Park,32.8326081,-117.1953755,92117,San Diego County
1149,Gershwin Park,32.8350573,-117.2114626,92117,San Diego County
1150,Tecolote Canyon Natural Parktrailhead,32.8122884,-117.1876252,92111,San Diego County
1151,Biltmore Trailhead,32.8406063,-117.205703,92122,San Diego County
1152,Alcott Park,32.8319591,-117.2214431,92140,San Diego County
1153,San Clemente Park,32.844582,-117.1948504,92122,San Diego County
1154,San Clemente Canyon,32.84472289999999,-117.2050975,92117,San Diego County
1155,San Clemente Canyon Trailhead Parking Lot,32.8415897,-117.2142361,92122,San Diego County
1156,Rose Creek Bike path Northern Trailhead,32.8166927,-117.2223425,92140,San Diego County
1157,San Clemente trail parking lot,32.8396463,-117.2192005,92122,San Diego County
1158,FreedomPleaseOrg,32.81232780000001,-117.177301,92111,San Diego County
1159,Mount Etna Neighborhood Park,32.8222326,-117.1920938,92117,San Diego County
1160,Coronado Community Center,32.67672329999999,-117.1712663,92118,San Diego County
1161,Mathewson Park,32.687331,-117.172637,92118,San Diego County
1162,Glorietta Bay Park,32.675119,-117.1688979,92118,San Diego County
1163,coronado cays park,32.6779748,-117.1729343,92118,San Diego County
1164,Spreckels Park,32.6906157,-117.1763446,92118,San Diego County
1165,Glorietta Bay Park Promenade,32.6770337,-117.1719759,92118,San Diego County
1166,Stan's Beach,32.6753861,-117.1738338,92118,San Diego County
1167,LCU 1500 Memorial,32.677233,-117.1616115,92155,San Diego County
1169,Vetter Park,32.68445969999999,-117.1708666,92118,San Diego County
1170,Matthewson Park,32.6872195,-117.1726083,92118,San Diego County
1171,Coronado Star Park,32.6840096,-117.1809754,92118,San Diego County
1172,Rotary Park,32.68559639999999,-117.1802216,92118,San Diego County
1173,Coronado Tidelands Park,32.6921518,-117.1664562,92118,San Diego County
1174,CISM Field,32.671523,-117.1608495,92155,San Diego County
1175,Boat Launch Ramp,32.6789675,-117.1593101,92155,San Diego County
1176,Cutler Field,32.6935415,-117.1802399,92118,San Diego County
1177,L C Bandell Park,32.6890837,-117.1881426,92118,San Diego County
1178,Triangle Park,32.6957239,-117.1785858,92118,San Diego County
1179,Mission Trails Regional Park,32.81795189999999,-117.05601,92119,San Diego County
1180,San Carlos Recreation Center,32.7981786,-117.0217702,92119,San Diego County
1181,Barker Way Trailhead,32.8101242,-117.0210305,92119,San Diego County
1182,Lake Murray Community Park,32.791986,-117.0441968,92119,San Diego County
1183,Mission Gorge Climbing,32.8183788,-117.0560016,92119,San Diego County
1184,Cowles Mountain,32.8128097,-117.0318613,92119,San Diego County
1185,Cowles Mountain Trailhead,32.8045355,-117.0373086,92119,San Diego County
1186,Boulder Lake Trailhead,32.8099654,-117.0209409,92119,San Diego County
1187,Pyles Peak summit,32.8230031,-117.0383275,92119,San Diego County
1188,San Carlos Community Garden,32.7977565,-117.0187384,92119,San Diego County
1189,Baseball field,32.8002167,-117.0504598,92120,San Diego County
1190,Dailard Park,32.80648240000001,-117.0538925,92120,San Diego County
1191,Big Rock Road Trail,32.826815,-117.0224082,92071,San Diego County
1192,Boulevard Trail (Cowles Mountain),32.8155476,-117.0101475,92119,San Diego County
1193,Rancho Mission Canyon Trail Trailhead,32.8004498,-117.0544596,92120,San Diego County
1194,Mesa Trailhead (Cowles Mountain),32.8240466,-117.0157711,92119,San Diego County
1195,Lake Murray run trail,32.7882231,-117.036037,92119,San Diego County
1196,Lake Murray park snack bar,32.7906137,-117.0475546,92119,San Diego County
1197,Kwaay Paay Peak,32.828245,-117.0464636,92119,San Diego County
1198,Rancho Mission Canyon Trail,32.8059262,-117.0591626,92120,San Diego County
1199,Allied Gardens Recreation Center,32.7959906,-117.0805088,92120,San Diego County
1200,Princess Del Cerro Park,32.7889771,-117.0674559,92120,San Diego County
1201,California Farm and Garden,32.807298,-117.075506,92120,San Diego County
1202,SDSU Turtle Pond,32.7759191,-117.0730665,92182,San Diego County
1203,Admiral Baker Recreation Area,32.80188270000001,-117.0975522,92124,San Diego County
1204,Campanile Mall,32.7727549,-117.0718786,92182,San Diego County
1205,Navajo Canyon Open Space Park,32.7959337,-117.0745586,92120,San Diego County
1206,Marvin Elementary Park,32.7969429,-117.0694462,92120,San Diego County
1207,1st Choice Computer Services,32.7912977,-117.0805919,92120,San Diego County
1208,Navajo Canyon,32.7885032,-117.0781496,92120,San Diego County
1209,Hiking Trail,32.7868529,-117.0812539,92120,San Diego County
1210,Rancho Mission Canyon,32.8063159,-117.0653483,92120,San Diego County
1211,SDSU Alvarado Canyon Ecological Area,32.7811723,-117.0740909,92182,San Diego County
1212,Navajo Canyon Trail Trailhead,32.78400010000001,-117.0844465,92120,San Diego County
1213,Rancho Mission Canyon Trail,32.8059262,-117.0591626,92120,San Diego County
1214,Rancho Mission Canyon Trail Trailhead,32.8004498,-117.0544596,92120,San Diego County
1215,Del Cerro Park,32.78170170000001,-117.0578484,92120,San Diego County
1216,Ginkgo biloba,32.7776164,-117.0725651,92182,San Diego County
1217,Fern Garden,32.7774806,-117.0717399,92182,San Diego County
1218,Van Niekerk Quad,32.7770319,-117.0709609,92182,San Diego County
1219,Ocean Air Recreation Center,32.9278347,-117.2170307,92130,San Diego County
1220,Torrey Hills Park,32.9182636,-117.2227965,92130,San Diego County
1221,El Camino Memorial - Sorrento Valley & Memorial Park,32.8930791,-117.1837318,92121,San Diego County
1222,University Village Park,32.8586123,-117.1917985,92122,San Diego County
1223,Nobel Athletic Fields and Recreation Center,32.8670275,-117.1992609,92122,San Diego County
1224,Sage Canyon Park,32.9263355,-117.2062196,92130,San Diego County
1225,Lopez Ridge Park,32.9212543,-117.1674663,92126,San Diego County
1226,Los Penasquitos Canyon Trailhead,32.9064941,-117.2060776,92121,San Diego County
1227,Lopez-Penasquitos canyon confluence,32.9065687,-117.2065043,92121,San Diego County
1228,Lopez Canyon trailhead (east),32.9059417,-117.1913528,92121,San Diego County
1229,Art Thatch,32.9004389,-117.2215874,92092,San Diego County
1230,Scripps Coastal Reserve,32.8756767,-117.2488028,92093,San Diego County
1231,UTC Mall dog park,32.87020529999999,-117.2106487,92039,San Diego County
1232,Challenge Course,32.8883139,-117.2372481,92092,San Diego County
1233,Maddox Park Dog Park,32.9064314,-117.1575795,92126,San Diego County
1234,Roger's Community Garden,32.87206429999999,-117.239455,92093,San Diego County
1235,Blacks Beach Trailhead,32.8799664,-117.2469933,92093,San Diego County
1236,Carmel Mountain Preserve,32.9399434,-117.2131026,92130,San Diego County
1237,Maddox Park,32.9065926,-117.1569896,92126,San Diego County
1238,Doyle Community Park,32.864577,-117.2194635,92122,San Diego County
1239,University Village Park,32.8586123,-117.1917985,92122,San Diego County
1240,Nobel Athletic Fields and Recreation Center,32.8670275,-117.1992609,92122,San Diego County
1241,Marian Bear Memorial Park,32.8455197,-117.1995044,92122,San Diego County
1242,UTC Mall dog park,32.87020529999999,-117.2106487,92039,San Diego County
1243,University Gardens Park,32.85385359999999,-117.1900723,92122,San Diego County
1244,Doyle Community Park,32.864577,-117.2194635,92122,San Diego County
1245,La Jolla Colony Park,32.86190489999999,-117.2273757,92122,San Diego County
1246,Rose Canyon Open Space Park,32.8563355,-117.2204391,92122,San Diego County
1247,Rose Canyon Trail Head,32.86035549999999,-117.2088044,92122,San Diego County
1248,Standley Recreation Center,32.8511678,-117.2102771,92122,San Diego County
1249,Standley Middle School soccer field,32.8510018,-117.206641,92122,San Diego County
1250,Rose Canyon Trailhead,32.8551387,-117.2178993,92122,San Diego County
1251,Road on Rose Canyon,32.86397210000001,-117.2072365,92122,San Diego County
1252,Rose Canyon,32.8563369,-117.2204522,92122,San Diego County
1253,Doyle Dog Park,32.8643214,-117.2171457,92122,San Diego County
1254,Standley Park Trailhead,32.84702589999999,-117.2095915,92122,San Diego County
1255,Montrose Park,32.86699939999999,-117.2085095,92122,San Diego County
1256,San Clemente Canyon,32.84472289999999,-117.2050975,92117,San Diego County
1257,The Plant Boutique,32.8700899,-117.212053,92039,San Diego County
1258,Coastal Sage Habitat Interpretive Trail,32.8495119,-117.2237898,92122,San Diego County
1259,Lindbergh Neighborhood Park,32.8188015,-117.1622478,92111,San Diego County
1260,Cabrillo Heights Park,32.8057222,-117.1477317,92123,San Diego County
1261,Ruffin Canyon Open Space,32.7913152,-117.131939,92123,San Diego County
1262,Santo Terrace Community Center Park,32.8010944,-117.1083174,92124,San Diego County
1263,Kearny Mesa Leash-Free Dog Park,32.7999969,-117.1679463,92111,San Diego County
1264,TerraMesa Organic Garden,32.8055062,-117.1737884,92111,San Diego County
1265,Admiral Baker Recreation Area,32.80188270000001,-117.0975522,92124,San Diego County
1266,Prima Cemetery Services,32.7864568,-117.1622051,92111,San Diego County
1267,Kearny Mesa Recreation Center,32.8018721,-117.1651918,92111,San Diego County
1268,East Clairemont Athletic Area,32.8038633,-117.1834562,92111,San Diego County
1269,Olive Grove Park,32.8265079,-117.1706432,92111,San Diego County
1270,Murray Ridge Park,32.790442,-117.1466431,92123,San Diego County
1271,Rueda Canyon,32.8106322,-117.0999482,92124,San Diego County
1272,The Village at Serra Mesa Community Area,32.80323029999999,-117.1435712,92123,San Diego County
1273,Roadrunner Park,32.81812,-117.1005275,92124,San Diego County
1274,Mount Acadia Neighborhood Park,32.81238139999999,-117.1805156,92111,San Diego County
1275,Buffalo Restoration Project,32.8209579,-117.1811588,92117,San Diego County
1276,West Shepherd Canyon,32.8322168,-117.103411,92124,San Diego County
1277,Shepherd Canyon,32.8320906,-117.098583,92124,San Diego County
1278,Easting Park,32.8297466,-117.1292328,92123,San Diego County
1279,Mission Trails Regional Park,32.81795189999999,-117.05601,92119,San Diego County
1280,Old Mission Dam,32.8395246,-117.0431602,92120,San Diego County
1281,Villa Norte Park,32.8364788,-117.0887175,92124,San Diego County
1282,Allied Gardens Recreation Center,32.7959906,-117.0805088,92120,San Diego County
1283,Princess Del Cerro Park,32.7889771,-117.0674559,92120,San Diego County
1284,California Farm and Garden,32.807298,-117.075506,92120,San Diego County
1285,Mission Trails,32.8170978,-117.0596393,92120,San Diego County
1286,Mission Gorge Climbing,32.8183788,-117.0560016,92119,San Diego County
1287,Admiral Baker Recreation Area,32.80188270000001,-117.0975522,92124,San Diego County
1288,Santo Terrace Community Center Park,32.8010944,-117.1083174,92124,San Diego County
1289,Tierrasanta Community Park & Recreation Center,32.8303394,-117.0882303,92124,San Diego County
1290,Rueda Canyon,32.8106322,-117.0999482,92124,San Diego County
1291,Shepherd Canyon,32.8320906,-117.098583,92124,San Diego County
1292,Roadrunner Park,32.81812,-117.1005275,92124,San Diego County
1293,West Shepherd Canyon,32.8322168,-117.103411,92124,San Diego County
1294,North Rueda Canyon,32.8246884,-117.0922359,92124,San Diego County
1295,Lower North Shepherd Canyon,32.834732,-117.0983577,92124,San Diego County
1296,East Shepherd Canyon Trailhead,32.8296365,-117.0830553,92124,San Diego County
1297,Seda Nature Trail,32.8250202,-117.0811879,92124,San Diego County
1298,Elanus Canyon Trailhead,32.8227219,-117.079167,92124,San Diego County
1299,Breen Neighborhood Park,32.9233874,-117.1297843,92126,San Diego County
1300,Hourglass Community Park,32.9072983,-117.1228516,92126,San Diego County
1301,Lopez Ridge Park,32.9212543,-117.1674663,92126,San Diego County
1302,Camino Ruiz Neighborhood Park,32.9342596,-117.1466884,92126,San Diego County
1303,Mira Mesa Community Park,32.9142135,-117.1405756,92126,San Diego County
1304,Mira Mesa Recreation Center,32.9151462,-117.140302,92126,San Diego County
1305,Maddox Park Dog Park,32.9064314,-117.1575795,92126,San Diego County
1306,Maddox Park,32.9065926,-117.1569896,92126,San Diego County
1307,San Diego Playgrounds LLC,32.892971,-117.138572,92126,San Diego County
1308,Mesa Viking Park,32.9257522,-117.1364021,92126,San Diego County
1309,Mesa Verde Park,32.905776,-117.143755,92126,San Diego County
1310,Mira Mesa Community Park North,32.9163622,-117.1392599,92126,San Diego County
1312,Sandburg Park,32.9242245,-117.1485006,92126,San Diego County
1313,Christa Mcauliffe park,32.9146588,-117.1597908,92126,San Diego County
1314,Walker-Wangenheim Neighborhood Park,32.911016,-117.1252981,92126,San Diego County
1315,Miramar College Vernal Pools,32.9117824,-117.1230001,92126,San Diego County
1316,Novagarden,32.931164,-117.1523714,92126,San Diego County
1317,Camino Ruiz Top Trailhead,32.933211,-117.1459922,92126,San Diego County
1318,Westview Park,32.9231833,-117.1202445,92126,San Diego County
1319,Black Mountain Open Space Park,32.9829796,-117.1113107,92168,San Diego County
1320,Black Mountain Ranch Park,32.9877095,-117.1306702,92129,San Diego County
1321,Webb Lake,33.0174272,-117.0781211,92128,San Diego County
1322,4S Homestead Park,33.0118847,-117.1170275,92127,San Diego County
1323,Patriot Park,33.025301,-117.1085822,92127,San Diego County
1324,4S Ranch Sports Park,33.0039587,-117.1184568,92127,San Diego County
1325,High Country West Park,33.0067164,-117.0832604,92127,San Diego County
1326,RB Veterans Memorial,33.0175711,-117.0776208,92128,San Diego County
1327,Pioneer Park - Private Park,33.02952529999999,-117.114158,92127,San Diego County
1328,Miner's Ridge Loop Trail,32.9926742,-117.1159315,92127,San Diego County
1329,4S Ranch Heritage Park,33.01586750000001,-117.1167158,92127,San Diego County
1330,Four Corners,33.0183098,-117.1218026,92127,San Diego County
1331,Basketball,33.0185794,-117.1215657,92127,San Diego County
1332,Village Green Park,33.0166676,-117.1273424,92127,San Diego County
1333,Potomac Dogpark,33.017656,-117.129558,92127,San Diego County
1334,Dog Park,33.0211514,-117.1171328,92127,San Diego County
1335,Dog Park,33.0179571,-117.1300132,92127,San Diego County
1336,Embort Dogpark,33.0193806,-117.1355398,92127,San Diego County
1338,Angeline Park,33.0097175,-117.1290949,92127,San Diego County
1339,Black Mountain Open Space Park,32.9829796,-117.1113107,92168,San Diego County
1340,Old Poway Park,32.9704755,-117.0373275,92064,San Diego County
1341,Webb Lake,33.0174272,-117.0781211,92128,San Diego County
1342,Backyard Produce Garden,32.9944075,-117.0528364,92128,San Diego County
1343,High Country West Park,33.0067164,-117.0832604,92127,San Diego County
1344,RB Veterans Memorial,33.0175711,-117.0776208,92128,San Diego County
1345,Van Dam Peak,32.95942919999999,-117.0814692,92131,San Diego County
1346,4S Ranch Sports Park,33.0039587,-117.1184568,92127,San Diego County
1347,4S Homestead Park,33.0118847,-117.1170275,92127,San Diego County
1348,Patriot Park,33.025301,-117.1085822,92127,San Diego County
1349,The Barn Redefined,32.9687592,-117.0357789,92064,San Diego County
1350,Miner's Ridge Loop Trail,32.9926742,-117.1159315,92127,San Diego County
1351,Silverset Neighborhood Park,32.9807602,-117.0496347,92064,San Diego County
1352,Carmel Mountain Ranch Community Park,32.9662243,-117.0915437,92128,San Diego County
1353,Lucido Park - Private Park,33.0019106,-117.0643298,92128,San Diego County
1354,Highland Ranch Park,32.9824238,-117.0713881,92128,San Diego County
1355,Rolling Hills Park,32.9913536,-117.0920953,92128,San Diego County
1356,Lower Lacrosse Field RB High School,32.9929771,-117.0631295,92128,San Diego County
1357,Adobe Ridge Neighborhood Park,32.982563,-117.063328,92064,San Diego County
1358,The PQ Water Tower,32.9859787,-117.0927046,92129,San Diego County
1359,Canyonside Community Park,32.9420525,-117.1315859,92129,San Diego County
1360,Rancho Penãsquitos Linear Dog Park,32.95850010000001,-117.1215571,92129,San Diego County
1361,Hilltop Community Park #1,32.971302,-117.1187884,92129,San Diego County
1362,Views West Neighborhood Park,32.9553391,-117.1158126,92129,San Diego County
1363,St Timothy's Episcopal Church,32.9594052,-117.1068438,92129,San Diego County
1364,Twin Trails Neighborhood Park,32.9593312,-117.1330761,92129,San Diego County
1365,Adobe Bluffs Neighborhood Park,32.9728749,-117.1394919,92129,San Diego County
1366,Black Mountain Trailhead on Maler Road,32.980612,-117.1269748,92129,San Diego County
1367,Ranimas Trailhead (north),32.9471884,-117.1184159,92129,San Diego County
1368,Sun Ridge Vista Mini Park,32.9592476,-117.1050085,92129,San Diego County
1369,Utility trailhead (north),32.9451685,-117.1174619,92129,San Diego County
1370,Black Mountain Summit,32.98161609999999,-117.1160492,92129,San Diego County
1371,Trans County Trailhead (south),32.9442749,-117.1168147,92129,San Diego County
1372,Black Mountain Trailhead,32.98173979999999,-117.113074,92168,San Diego County
1373,Los Penasquitos Ranch house,32.9417096,-117.1299999,92129,San Diego County
1374,Rancho Penasquitos Dog Park,32.9578409,-117.121144,92129,San Diego County
1375,Crestmont Residents Dog Park,32.9692179,-117.1366603,92129,San Diego County
1376,Ridgewood Park,32.9460405,-117.116548,92129,San Diego County
1377,Ocean Air Recreation Center,32.9278347,-117.2170307,92130,San Diego County
1378,Torrey Hills Park,32.9182636,-117.2227965,92130,San Diego County
1379,Sage Canyon Park,32.9263355,-117.2062196,92130,San Diego County
1380,Lopez Ridge Park,32.9212543,-117.1674663,92126,San Diego County
1381,Carmel Mountain Preserve,32.9399434,-117.2131026,92130,San Diego County
1382,Del Mar Mesa Preserve,32.9512588,-117.1625037,92168,San Diego County
1383,San Diego Polo Fields,32.9851603,-117.2171526,92014,San Diego County
1384,Crest Canyon Park,32.9573375,-117.2530392,92014,San Diego County
1385,Torrey Pines Extension,32.9383843,-117.2527457,92014,San Diego County
1386,Lopez-Penasquitos canyon confluence,32.9065687,-117.2065043,92121,San Diego County
1387,Los Penasquitos Canyon Trailhead,32.9064941,-117.2060776,92121,San Diego County
1388,Ashley Falls Park,32.95744910000001,-117.2086714,92130,San Diego County
1389,Lopez Canyon trailhead (east),32.9059417,-117.1913528,92121,San Diego County
1390,Carmel Grove Park,32.9420154,-117.2317855,92130,San Diego County
1391,Carmel Del Mar Park,32.9400328,-117.2277432,92130,San Diego County
1392,Solana Highlands Park,32.9560101,-117.2387675,92130,San Diego County
1393,Shalin Landscape Garden Spa Design Build,32.9705626,-117.1598346,92130,San Diego County
1394,Torrey Highlands Dog Park,32.960399,-117.222056,92130,San Diego County
1395,Carmel Knolls Park,32.9499636,-117.2140638,92130,San Diego County
1396,Big Tony's Trailhead,32.9502548,-117.1952806,92130,San Diego County
1397,Scripps Ranch Community Park,32.9266004,-117.0791608,92131,San Diego County
1398,Cypress Canyon Park,32.924629,-117.0658009,92131,San Diego County
1399,Hoyt Park,32.904988,-117.099586,92131,San Diego County
1400,Jerabek Park,32.91025919999999,-117.0827484,92131,San Diego County
1401,Lakeview Park,32.91861920000001,-117.0878968,92131,San Diego County
1402,Elliot Chaparral Reserve,32.8954579,-117.0870203,92131,San Diego County
1403,Sycamore Canyon Park,32.9216561,-117.0390994,92145,San Diego County
1404,Stonemill Drive Trail,32.930258,-117.0601832,92131,San Diego County
1405,Treadwell Drive Trail,32.9330359,-117.0612966,92131,San Diego County
1406,Lake Miramar,32.9138098,-117.0989937,92131,San Diego County
1407,Scripps Woods,32.897189,-117.1049685,92131,San Diego County
1408,Stonebridge Neighborhood Park,32.9241585,-117.0213622,92145,San Diego County
1409,"Penasquitos Arm Crossing, Lake Miramar Trail",32.9209443,-117.0955766,92131,San Diego County
1410,"Director’s Point Crossing, Lake Miramar Trail",32.9169143,-117.0988908,92131,San Diego County
1411,"Poway Arm Crossing, Lake Miramar Trail",32.91990349999999,-117.0971225,92131,San Diego County
1412,Natalie Park,32.917401,-117.0992204,92131,San Diego County
1413,Hilltop,32.9326477,-117.0812874,92131,San Diego County
1414,Meanley Open Park,32.9089635,-117.1049043,92131,San Diego County
1415,"Bernardo Bay Crossing, Lake Miramar Trail",32.91837269999999,-117.1006211,92131,San Diego County
1416,Scripps Ranch Villages Butterfly Park,32.9330799,-117.083373,92131,San Diego County
1417,Rohr Park,32.66591259999999,-117.0317791,91902,San Diego County
1418,Penn Athletic Field,32.67827079999999,-117.0477493,92139,San Diego County
1419,George L. Stevens Senior Center,32.6985093,-117.0587214,92114,San Diego County
1420,Bay Terraces Community Park,32.68045299999999,-117.0360088,92139,San Diego County
1421,Lincoln Acres Park,32.6668312,-117.0711185,91950,San Diego County
1422,Southbay Townhome dog park,32.680306,-117.044321,92139,San Diego County
1423,Paradise Hills Native Garden,32.6866712,-117.0491573,92139,San Diego County
1424,Parkside Neighborhood Park,32.6681273,-117.0510893,92139,San Diego County
1425,Bayview Hills Green Park,32.68220540000001,-117.0607246,92139,San Diego County
1426,Sky Harbor Park,32.6836465,-117.0620379,92139,San Diego County
1427,Bayview Hills recreation center,32.6832855,-117.0623052,92139,San Diego County
1428,Ridgewood Playground,32.6840859,-117.0638604,92139,San Diego County
1429,Tonawanda Park,32.6666528,-117.056693,92139,San Diego County
1430,Rohr Dog Park,32.6645783,-117.0386225,91902,San Diego County
1431,Twins softball park,32.666552,-117.065363,92139,San Diego County
1432,Boone Neighborhood Park,32.6975585,-117.0376641,92114,San Diego County
1433,Sweetwater Heights Park,32.6616369,-117.0586291,91950,San Diego County
1434,Xross-Camp At Rohr Park by Porter,32.67291400000001,-117.0252613,91902,San Diego County
1435,Rohr Park baseball restroom,32.6658947,-117.0290252,91902,San Diego County
1436,Martin Luther King jr. Recreation Center & Park,32.69976560000001,-117.0608286,92114,San Diego County
1437,All Seasons Park,32.6130587,-116.9753082,91913,San Diego County
1438,Otay Lakes County Park,32.6054185,-116.9304673,91915,San Diego County
1439,Epic Gardening,32.57050369999999,-117.0019382,92173,San Diego County
1440,Vista Pacifica Park,32.5811485,-117.0056605,92154,San Diego County
1441,Artificial Grass Distributors,32.5559307,-116.9449591,92154,San Diego County
1442,Avenida Palomino Park,32.596268,-116.9953186,91913,San Diego County
1443,"Escaya Dog Park - Private, Residents Only",32.5982201,-116.9947476,91913,San Diego County
1444,Borden Park,32.5993657,-116.9936697,91913,San Diego County
1445,Avenida Escaya Park,32.59541550000001,-116.9975361,91913,San Diego County
1446,Borderlands Park,32.5476285,-116.9817623,92173,San Diego County
1447,Escaya Linear Park,32.5959527,-117.0001265,91913,San Diego County
1448,Santa Maya Park,32.594241,-117.0020469,91913,San Diego County
1449,Escaya Park,32.597902,-117.0007568,91913,San Diego County
1450,Millenia Park,32.61323549999999,-116.9681981,91915,San Diego County
1451,Strata Park,32.6134176,-116.9647274,91915,San Diego County
1452,Strata & Flora Park 1,32.5988581,-117.0004119,91913,San Diego County
1453,The Residences Park,32.6006435,-116.999179,91913,San Diego County
1454,Orion Park,32.6142376,-116.9624298,91915,San Diego County
1455,Summerland Park,32.6070559,-116.9926421,91913,San Diego County
1456,Wolf Canyon Park,32.61408,-116.975275,91913,San Diego County
1457,Tijuana River Valley Regional Park,32.5448464,-117.0746519,92154,San Diego County
1458,Larsen Field,32.5462478,-117.0448366,92173,San Diego County
1459,Vista Terrace Park,32.5641456,-117.051641,92173,San Diego County
1460,San Ysidro Park,32.55543470000001,-117.0442874,92173,San Diego County
1461,Dairy Mart Pond,32.55433059999999,-117.0627854,92154,San Diego County
1462,Tijuana River Valley Regional Park,32.554196,-117.0628201,92154,San Diego County
1463,Coral Gate Park,32.5451988,-117.0497132,92173,San Diego County
1464,Dairy Mart Pond,32.5552196,-117.064889,92154,San Diego County
1465,Tijuana River Valley,32.5503388,-117.0656461,92173,San Diego County
1466,Howard Lane Neighborhood Park,32.5664481,-117.0635942,92173,San Diego County
1468,Tijuana River Valley Sports Complex,32.5581877,-117.0754841,92154,San Diego County
1471,Tijuana River County Open Space Preserve PARK & Walk-in Entrance,32.5448463,-117.0746519,92154,San Diego County
1473,San Ysidro Community Park,32.5540673,-117.0442848,92173,San Diego County
1474,International Park,32.5410592,-117.0926469,91932,San Diego County
1476,San Mateo Campground,33.40511349999999,-117.584567,92763,San Diego County
1480,Trestles Beach Trailhead,33.3957577,-117.5915678,92763,San Diego County
1481,Rock Formation,33.4028023,-117.5511485,92051,San Diego County
1491,San Onofre,33.3895721,-117.5931518,92763,San Diego County
1492,Trestles Beach Trailhead,33.3960846,-117.5913646,92763,San Diego County
1493,Trestles Beach,33.3853075,-117.5939359,92763,San Diego County
